{"bbox":[128.9,35.08,129.03,35.3],"features":[{"geometry":{"coordinates":[[[129.0034,35.2134],[129.0034,35.2133],[129.0033,35.2133],[129.0033,35.2132],[129.0032,35.213],[129.0031,35.2129],[129.0031,35.2128],[129.0031,35.2127],[129.0031,35.2126],[129.003,35.2122],[129.0029,35.2118],[129.0028,35.2116],[129.0028,35.2114],[129.0027,35.2111],[129.0026,35.211],[129.0025,35.2108],[129.0024,35.2106],[129.0022,35.2102],[129.0022,35.2101],[129.0021,35.21],[129.0016,35.2101],[129.0015,35.2101],[129.0013,35.2101],[129.0011,35.2101],[129.0008,35.21],[129.0006,35.2099],[129.0005,35.2098],[128.9995,35.2104],[128.9997,35.2107],[128.9999,35.2111],[129.0002,35.2115],[129.0005,35.2119],[129.0006,35.2122],[129.0008,35.2124],[129.0011,35.2128],[129.0013,35.2133],[129.0015,35.2138],[129.0035,35.2135],[129.0034,35.2134]]],"type":"Polygon"},"id":"rc100-1","properties":{"geo_key":"2000010C1001033200","priority":1,"rmp_code":"2000010200912","source_feature_id":"rc100.fid--4e45399f_1a04c5d1742_5c8","source_layer":"rc100","zone_label":"하천구역","zone_type":"river_area"},"type":"Feature"},{"geometry":{"coordinates":[[[129.0071,35.2327],[129.0071,35.2326],[129.007,35.2325],[129.007,35.2324],[129.007,35.2323],[129.0071,35.2323],[129.007,35.2322],[129.007,35.2321],[129.007,35.2319],[129.0069,35.2316],[129.0069,35.2315],[129.0069,35.2314],[129.0069,35.2312],[129.0069,35.2309],[129.0068,35.2304],[129.0067,35.23],[129.0066,35.2294],[129.0065,35.229],[129.0064,35.2285],[129.0064,35.2281],[129.0062,35.227],[129.0061,35.2267],[129.006,35.2261],[129.0059,35.2256],[129.0058,35.2248],[129.0057,35.2243],[129.0057,35.2242],[129.0056,35.2239],[129.0055,35.2234],[129.0054,35.2229],[129.0054,35.2224],[129.0052,35.2217],[129.0052,35.2212],[129.005,35.2204],[129.0022,35.2209],[129.0021,35.221],[129.002,35.2218],[129.0019,35.2225],[129.0018,35.223],[129.0017,35.2236],[129.0015,35.2243],[129.0013,35.2252],[129.0009,35.2262],[129.0008,35.2267],[129.0007,35.2271],[129.0006,35.2273],[129.0005,35.2275],[129.0002,35.2283],[128.9999,35.2291],[128.9996,35.2297],[128.9992,35.2307],[128.9991,35.2309],[128.9988,35.2315],[128.9986,35.2321],[128.9981,35.2333],[128.9978,35.2339],[129.0071,35.2328],[129.0071,35.2327]]],"type":"Polygon"},"id":"rc100-2","properties":{"geo_key":"2000010C1001036200","priority":1,"rmp_code":"2000010200912","source_feature_id":"rc100.fid--4e45399f_1a04c5d1742_5c9","source_layer":"rc100","zone_label":"하천구역","zone_type":"river_area"},"type":"Feature"},{"geometry":{"coordinates":[[[128.9841,35.2958],[128.9857,35.2947],[128.9859,35.2946],[128.9842,35.2926],[128.9842,35.2927],[128.9841,35.2927],[128.984,35.2927],[128.9839,35.2927],[128.9839,35.2926],[128.9838,35.2926],[128.9837,35.2925],[128.9836,35.2925],[128.9835,35.2925],[128.9834,35.2926],[128.9833,35.2926],[128.9832,35.2926],[128.9831,35.2926],[128.983,35.2926],[128.9829,35.2926],[128.9829,35.2927],[128.9829,35.2928],[128.9828,35.2928],[128.9827,35.2929],[128.9827,35.293],[128.9826,35.293],[128.9826,35.2931],[128.9825,35.2931],[128.9824,35.2932],[128.9823,35.2932],[128.9823,35.2933],[128.9822,35.2933],[128.9822,35.2934],[128.9821,35.2935],[128.9823,35.2935],[128.9824,35.2935],[128.982,35.2938],[128.9819,35.2939],[128.982,35.294],[128.9819,35.294],[128.9819,35.2941],[128.9818,35.2942],[128.9819,35.2943],[128.9818,35.2943],[128.9817,35.2944],[128.9816,35.2944],[128.9816,35.2945],[128.9815,35.2946],[128.9814,35.2947],[128.9812,35.2948],[128.9811,35.2948],[128.981,35.2948],[128.981,35.2949],[128.9809,35.2949],[128.9809,35.295],[128.9808,35.295],[128.9808,35.2951],[128.9807,35.2951],[128.9807,35.2952],[128.9806,35.2952],[128.9806,35.2953],[128.9805,35.2953],[128.9805,35.2954],[128.9804,35.2955],[128.9803,35.2955],[128.9803,35.2956],[128.9802,35.2956],[128.9801,35.2955],[128.9801,35.2956],[128.98,35.2956],[128.98,35.2957],[128.9799,35.2958],[128.9798,35.2959],[128.9797,35.296],[128.9797,35.2961],[128.982,35.2981],[128.9841,35.2958]]],"type":"Polygon"},"id":"rc100-3","properties":{"geo_key":"2000010C1002063125","priority":1,"rmp_code":"2000010200912","source_feature_id":"rc100.fid--4e45399f_1a04c5d1742_5e2","source_layer":"rc100","zone_label":"하천구역","zone_type":"river_area"},"type":"Feature"},{"geometry":{"coordinates":[[[129.0099,35.2506],[129.0099,35.2505],[129.0099,35.2504],[129.0099,35.2503],[129.0099,35.2502],[129.0099,35.2501],[129.0099,35.2499],[129.0099,35.2497],[129.0099,35.2495],[129.0098,35.2493],[129.0098,35.2491],[129.0098,35.2488],[129.0097,35.2485],[129.0097,35.2483],[129.0097,35.2481],[129.0097,35.2479],[129.0097,35.2478],[129.0097,35.2476],[129.0096,35.2474],[129.0096,35.2473],[129.0096,35.2471],[129.0096,35.247],[129.0096,35.2467],[129.0095,35.2466],[129.0095,35.2464],[129.0095,35.2462],[129.0095,35.246],[129.0095,35.2459],[129.0095,35.2457],[129.0094,35.2455],[129.0094,35.2453],[129.0094,35.2452],[129.0094,35.245],[129.0093,35.2448],[129.0093,35.2446],[129.0093,35.2443],[129.0093,35.2441],[129.0093,35.244],[129.0092,35.2438],[129.0092,35.2436],[129.0092,35.2434],[129.0092,35.2433],[129.0092,35.2431],[129.0091,35.243],[129.0091,35.2428],[129.0091,35.2427],[129.009,35.2425],[129.009,35.2424],[129.0091,35.2424],[129.0091,35.2423],[129.0093,35.2423],[129.0094,35.2423],[129.0095,35.2421],[129.0096,35.2419],[129.0095,35.2417],[129.0095,35.2416],[129.0095,35.2415],[129.0011,35.2428],[129.0022,35.2454],[129.0042,35.2489],[129.0056,35.2515],[129.0099,35.2509],[129.0099,35.2506]]],"type":"Polygon"},"id":"rc100-4","properties":{"geo_key":"2000010C1001042200","priority":1,"rmp_code":"2000010200912","source_feature_id":"rc100.fid--4e45399f_1a04c5d1742_5f6","source_layer":"rc100","zone_label":"하천구역","zone_type":"river_area"},"type":"Feature"},{"geometry":{"coordinates":[[[129.0011,35.2428],[129.0095,35.2415],[129.0094,35.2411],[129.0093,35.2404],[129.0093,35.2403],[129.0006,35.2417],[129.0011,35.2428]]],"type":"Polygon"},"id":"rc100-5","properties":{"geo_key":"2000010C1001042070","priority":1,"rmp_code":"2000010200912","source_feature_id":"rc100.fid--4e45399f_1a04c5d1742_5f7","source_layer":"rc100","zone_label":"하천구역","zone_type":"river_area"},"type":"Feature"},{"geometry":{"coordinates":[[[129.0093,35.2401],[129.0092,35.2399],[129.009,35.2398],[129.0089,35.2397],[129.0087,35.2397],[129.0085,35.2397],[129.0084,35.2389],[129.0083,35.2385],[129.0082,35.2382],[129.0082,35.238],[129.0082,35.2379],[129.0082,35.2378],[129.0081,35.2377],[129.0081,35.2376],[129.0081,35.2375],[129.008,35.2371],[129.008,35.237],[129.008,35.2369],[129.0079,35.2368],[129.0078,35.2364],[129.0077,35.2363],[129.0077,35.2362],[129.0077,35.2359],[129.0075,35.235],[129.0074,35.2342],[129.0071,35.233],[129.0071,35.2329],[129.0071,35.2328],[128.9978,35.2339],[128.9977,35.2341],[128.9976,35.2345],[128.9973,35.235],[128.9971,35.2354],[128.9968,35.2361],[128.9974,35.2367],[128.9988,35.2381],[128.9989,35.2383],[128.999,35.2386],[128.9992,35.2388],[128.9993,35.239],[128.9996,35.2397],[128.9999,35.2403],[129.0002,35.2409],[129.0006,35.2416],[129.0006,35.2417],[129.0093,35.2403],[129.0093,35.2401]]],"type":"Polygon"},"id":"rc100-6","properties":{"geo_key":"2000010C1001039350","priority":1,"rmp_code":"2000010200912","source_feature_id":"rc100.fid--4e45399f_1a04c5d1742_5fd","source_layer":"rc100","zone_label":"하천구역","zone_type":"river_area"},"type":"Feature"},{"geometry":{"coordinates":[[[128.9809,35.2994],[128.982,35.2981],[128.9797,35.2961],[128.9796,35.2961],[128.9781,35.298],[128.978,35.298],[128.978,35.2981],[128.9779,35.2981],[128.9778,35.2981],[128.9777,35.2981],[128.9776,35.2981],[128.9774,35.2981],[128.9774,35.2983],[128.9773,35.2986],[128.9773,35.2988],[128.9773,35.2989],[128.9772,35.299],[128.9772,35.2991],[128.9772,35.2992],[128.9772,35.2993],[128.9771,35.2995],[128.977,35.2998],[128.9769,35.3],[128.98069999999998,35.3],[128.9809,35.2994]]],"type":"Polygon"},"id":"rc100-7","properties":{"geo_key":"2000010C1002063600","priority":1,"rmp_code":"2000010200912","source_feature_id":"rc100.fid--4e45399f_1a04c5d1742_601","source_layer":"rc100","zone_label":"하천구역","zone_type":"river_area"},"type":"Feature"},{"geometry":{"coordinates":[[[128.996,35.2999],[128.9963,35.2997],[128.9969,35.2994],[128.9973,35.2991],[128.9974,35.2991],[128.9978,35.2988],[128.9986,35.2984],[128.999,35.2982],[128.9992,35.298],[128.9995,35.2978],[128.9996,35.2977],[128.9998,35.2975],[129.0,35.2973],[129.0002,35.2972],[129.0007,35.2967],[129.0011,35.2964],[129.0012,35.2963],[129.0013,35.2963],[129.0013,35.2962],[129.0014,35.2962],[129.0014,35.2961],[129.0015,35.2961],[129.0015,35.296],[129.0016,35.296],[129.0017,35.2959],[129.0019,35.2957],[129.002,35.2956],[129.0022,35.2954],[129.0023,35.2953],[129.0025,35.2951],[129.0028,35.2949],[129.0031,35.2946],[129.0034,35.2944],[129.0037,35.2941],[129.0041,35.2937],[129.0044,35.2934],[129.0048,35.293],[129.0051,35.2928],[129.0052,35.2927],[129.0058,35.2922],[129.0058,35.2921],[129.0061,35.2919],[129.0062,35.2918],[129.0064,35.2916],[129.0067,35.2913],[129.007,35.291],[129.0073,35.2908],[129.0076,35.2905],[129.008,35.2901],[129.0084,35.2898],[129.0087,35.2896],[129.009,35.2894],[129.0093,35.2891],[129.0095,35.2889],[129.0098,35.2886],[129.0101,35.2884],[129.0103,35.2882],[129.0106,35.288],[129.0107,35.2879],[129.0108,35.2878],[129.0109,35.2877],[129.011,35.2877],[129.0111,35.2876],[129.0112,35.2876],[129.0112,35.2875],[129.0111,35.2874],[129.011,35.2874],[129.0052,35.2837],[129.0039,35.2849],[129.0006,35.2868],[128.9984,35.2886],[128.9954,35.2901],[128.9951,35.2903],[128.994,35.2909],[128.9931,35.2911],[128.9896,35.2922],[128.9893,35.2924],[128.9873,35.2937],[128.9859,35.2946],[128.9857,35.2947],[128.9841,35.2958],[128.982,35.2981],[128.9809,35.2994],[128.98069999999998,35.3],[128.9958,35.3],[128.996,35.2999]]],"type":"Polygon"},"id":"rc100-8","properties":{"geo_key":"2000010C1001054140","priority":1,"rmp_code":"2000010200912","source_feature_id":"rc100.fid--4e45399f_1a04c5d1742_602","source_layer":"rc100","zone_label":"하천구역","zone_type":"river_area"},"type":"Feature"},{"geometry":{"coordinates":[[[[128.99439565217392,35.289004347826086],[128.9944,35.289],[128.9943,35.2889],[128.99439565217392,35.289004347826086]]],[[[128.9893,35.2924],[128.9896,35.2922],[128.9931,35.2911],[128.994,35.2909],[128.9951,35.2903],[128.9954,35.2901],[128.99439565217392,35.289004347826086],[128.9943,35.2891],[128.9943,35.2892],[128.9942,35.2893],[128.9941,35.2893],[128.994,35.2893],[128.9939,35.2893],[128.9939,35.2894],[128.9938,35.2894],[128.9937,35.2895],[128.9936,35.2895],[128.9936,35.2896],[128.9935,35.2896],[128.9935,35.2897],[128.9934,35.2897],[128.9933,35.2897],[128.9933,35.2898],[128.9932,35.2898],[128.9931,35.2898],[128.993,35.2898],[128.9929,35.2898],[128.9928,35.2898],[128.9927,35.2898],[128.9926,35.2898],[128.9925,35.2898],[128.9925,35.2897],[128.9924,35.2897],[128.9923,35.2897],[128.9922,35.2897],[128.9921,35.2898],[128.992,35.2898],[128.9919,35.2898],[128.9918,35.2899],[128.9917,35.2899],[128.9916,35.2899],[128.9915,35.2898],[128.9915,35.2899],[128.9914,35.29],[128.9913,35.29],[128.9912,35.29],[128.9912,35.2901],[128.991,35.2902],[128.9909,35.2903],[128.9907,35.2903],[128.9906,35.2903],[128.9905,35.2904],[128.9904,35.2904],[128.9903,35.2904],[128.9902,35.2904],[128.9901,35.2904],[128.9899,35.2904],[128.9897,35.2904],[128.9895,35.2904],[128.9894,35.2904],[128.9892,35.2905],[128.9892,35.2906],[128.9891,35.2906],[128.989,35.2906],[128.989,35.2907],[128.989,35.2908],[128.9889,35.2909],[128.9888,35.2909],[128.9885,35.291],[128.9884,35.291],[128.9882,35.2911],[128.9881,35.2911],[128.988,35.2911],[128.988,35.2912],[128.9879,35.2912],[128.9878,35.2912],[128.9877,35.2912],[128.9876,35.2913],[128.9875,35.2913],[128.9875,35.2914],[128.9873,35.2914],[128.987,35.2914],[128.9869,35.2914],[128.9867,35.2914],[128.9865,35.2915],[128.9863,35.2915],[128.9861,35.2916],[128.986,35.2917],[128.9859,35.2918],[128.9858,35.2918],[128.9857,35.2919],[128.9856,35.292],[128.9857,35.2923],[128.9856,35.2924],[128.9855,35.2924],[128.9854,35.2925],[128.9854,35.2926],[128.9853,35.2926],[128.9853,35.2927],[128.9852,35.2927],[128.9851,35.2928],[128.985,35.2928],[128.9849,35.2928],[128.9848,35.2928],[128.9847,35.2929],[128.9846,35.2929],[128.9845,35.2928],[128.9845,35.2927],[128.9844,35.2927],[128.9844,35.2926],[128.9843,35.2926],[128.9842,35.2926],[128.9859,35.2946],[128.9873,35.2937],[128.9893,35.2924]]]],"type":"MultiPolygon"},"id":"rc100-9","properties":{"geo_key":"2000010C1002059025","priority":1,"rmp_code":"2000010200912","source_feature_id":"rc100.fid--4e45399f_1a04c5d1742_603","source_layer":"rc100","zone_label":"하천구역","zone_type":"river_area"},"type":"Feature"},{"geometry":{"coordinates":[[[[129.0061,35.2829],[129.0063,35.2827],[129.0075,35.2815],[129.0116,35.2777],[129.013,35.2748],[129.0133,35.2741],[129.0148,35.2705],[129.0133,35.267],[129.0116,35.2634],[129.0098,35.2596],[129.0078,35.2561],[129.0061,35.2525],[129.0056,35.2515],[129.0042,35.2489],[129.0022,35.2454],[129.0011,35.2428],[129.0006,35.2417],[129.0006,35.2416],[129.0002,35.2409],[128.9999,35.2403],[128.9996,35.2397],[128.9993,35.239],[128.9992,35.2388],[128.999,35.2386],[128.9989,35.2383],[128.9988,35.2381],[128.9974,35.2367],[128.9968,35.2361],[128.9971,35.2354],[128.9973,35.235],[128.9976,35.2345],[128.9977,35.2341],[128.9978,35.2339],[128.9981,35.2333],[128.9986,35.2321],[128.9938,35.2326],[128.9938,35.2327],[128.9939,35.2329],[128.9939,35.2331],[128.9939,35.2332],[128.994,35.2333],[128.994,35.2338],[128.9941,35.2339],[128.994,35.2339],[128.9938,35.2338],[128.9938,35.234],[128.9939,35.2345],[128.9941,35.2354],[128.9941,35.2358],[128.9942,35.2362],[128.9942,35.2363],[128.9943,35.2363],[128.9945,35.2365],[128.9945,35.2366],[128.9944,35.2367],[128.9943,35.2367],[128.9943,35.2368],[128.9943,35.237],[128.9944,35.2372],[128.9944,35.2373],[128.9945,35.2374],[128.9945,35.2375],[128.9946,35.2376],[128.9946,35.2377],[128.9946,35.2378],[128.9947,35.2379],[128.9948,35.2381],[128.9948,35.2382],[128.9949,35.2383],[128.9949,35.2385],[128.9949,35.2386],[128.995,35.2388],[128.9951,35.2389],[128.9952,35.239],[128.9952,35.2392],[128.9952,35.2393],[128.9952,35.2394],[128.9954,35.2398],[128.9955,35.2399],[128.9955,35.24],[128.9955,35.2401],[128.9953,35.24],[128.9952,35.24],[128.9954,35.2402],[128.9955,35.2403],[128.9956,35.2404],[128.9957,35.2408],[128.9957,35.2409],[128.9958,35.2411],[128.9958,35.2412],[128.9958,35.2413],[128.9957,35.2413],[128.9959,35.2419],[128.9959,35.242],[128.9959,35.2422],[128.9961,35.2427],[128.9962,35.243],[128.9962,35.2432],[128.9964,35.2437],[128.9967,35.2447],[128.9968,35.2453],[128.9971,35.2465],[128.9972,35.2467],[128.9977,35.2484],[128.9978,35.2487],[128.9978,35.2488],[128.9981,35.2499],[128.9982,35.2499],[128.9988,35.2521],[128.999,35.2528],[129.0,35.2561],[129.0001,35.2565],[129.0004,35.2576],[129.0007,35.2585],[129.0011,35.2597],[129.0014,35.2607],[129.0017,35.2615],[129.0018,35.2619],[129.0018,35.2621],[129.0019,35.2622],[129.0019,35.2624],[129.0019,35.2625],[129.002,35.2627],[129.0022,35.2632],[129.0024,35.2641],[129.0029,35.2653],[129.0029,35.2655],[129.003,35.2659],[129.0032,35.2663],[129.0033,35.2666],[129.0032,35.2666],[129.0032,35.2667],[129.0033,35.2667],[129.0034,35.2669],[129.0036,35.2672],[129.0037,35.2674],[129.0037,35.2675],[129.0039,35.2683],[129.0041,35.2692],[129.0042,35.2692],[129.0044,35.2701],[129.0045,35.2709],[129.0044,35.2709],[129.0046,35.271],[129.0046,35.2711],[129.0046,35.2714],[129.0046,35.2718],[129.0047,35.2722],[129.0048,35.2724],[129.0048,35.2726],[129.0047,35.2726],[129.0047,35.2727],[129.0048,35.2727],[129.0049,35.2738],[129.005,35.274],[129.005,35.2741],[129.0049,35.2744],[129.0049,35.2746],[129.0049,35.2748],[129.0049,35.2753],[129.0049,35.2754],[129.0049,35.2756],[129.0049,35.2757],[129.0049,35.2758],[129.0048,35.2761],[129.0048,35.276],[129.0047,35.2765],[129.0046,35.2767],[129.0046,35.2768],[129.0044,35.2774],[129.0043,35.2775],[129.0042,35.2777],[129.004,35.2783],[129.0034,35.2791],[129.0031,35.2796],[129.003,35.2797],[129.0029,35.2797],[129.0028,35.2799],[129.0027,35.2799],[129.0026,35.2799],[129.0027,35.28],[129.0024,35.2803],[129.0021,35.2806],[129.0019,35.2808],[129.0017,35.281],[129.0017,35.2812],[129.0013,35.2815],[129.001,35.2818],[129.0008,35.282],[129.0007,35.282],[129.0008,35.2821],[129.0007,35.2821],[129.0006,35.2824],[129.0003,35.2827],[129.0002,35.2827],[129.0001,35.2827],[129.0002,35.2828],[128.9996,35.2834],[128.9995,35.2833],[128.9995,35.2834],[128.9989,35.2841],[128.9988,35.284],[128.9988,35.2841],[128.9985,35.2845],[128.9983,35.2847],[128.9979,35.2851],[128.9976,35.2854],[128.9975,35.2853],[128.9974,35.2854],[128.9976,35.2855],[128.9969,35.2861],[128.997,35.2861],[128.9965,35.2866],[128.9963,35.2869],[128.9958,35.2873],[128.9956,35.2875],[128.9955,35.2876],[128.9953,35.2878],[128.9952,35.2879],[128.9952,35.288],[128.995,35.2882],[128.9949,35.2884],[128.9949,35.2885],[128.9948,35.2886],[128.9947,35.2887],[128.9946,35.2887],[128.9945,35.2886],[128.9944,35.2886],[128.9945,35.2888],[128.9944,35.2889],[128.9943,35.2889],[128.9954,35.2901],[128.9984,35.2886],[129.0006,35.2868],[129.0039,35.2849],[129.0052,35.2837],[129.0061,35.2829]]],[[[129.0021,35.2806],[129.002,35.2805],[129.002,35.2806],[129.0021,35.2806]]]],"type":"MultiPolygon"},"id":"rc100-10","properties":{"geo_key":"2000010C1002039150","priority":1,"rmp_code":"2000010200912","source_feature_id":"rc100.fid--4e45399f_1a04c5d1742_604","source_layer":"rc100","zone_label":"하천구역","zone_type":"river_area"},"type":"Feature"},{"geometry":{"coordinates":[[[129.0121,35.2865],[129.0121,35.2864],[129.0063,35.2827],[129.0061,35.2829],[129.0052,35.2837],[129.011,35.2874],[129.0121,35.2865]]],"type":"Polygon"},"id":"rc100-11","properties":{"geo_key":"2000010C1001054000","priority":1,"rmp_code":"2000010200912","source_feature_id":"rc100.fid--4e45399f_1a04c5d1742_605","source_layer":"rc100","zone_label":"하천구역","zone_type":"river_area"},"type":"Feature"},{"geometry":{"coordinates":[[[129.0122,35.2864],[129.0125,35.2867],[129.0126,35.2867],[129.0127,35.2865],[129.0129,35.2864],[129.0129,35.2862],[129.013,35.2861],[129.0131,35.286],[129.0132,35.286],[129.0133,35.2858],[129.0134,35.2856],[129.0135,35.2855],[129.0135,35.2854],[129.0136,35.2853],[129.0136,35.2852],[129.0137,35.2852],[129.0137,35.2851],[129.0138,35.285],[129.0138,35.2849],[129.0138,35.2848],[129.0139,35.2846],[129.0139,35.2845],[129.014,35.2844],[129.014,35.2843],[129.0142,35.2839],[129.0142,35.2837],[129.0143,35.2837],[129.0143,35.2836],[129.0143,35.2835],[129.0144,35.2834],[129.0144,35.2832],[129.0145,35.2828],[129.0146,35.2827],[129.0146,35.2824],[129.0148,35.282],[129.0149,35.2816],[129.0152,35.2806],[129.0153,35.2802],[129.0154,35.2798],[129.0156,35.2793],[129.0157,35.2789],[129.0159,35.2784],[129.0161,35.2777],[129.0163,35.277],[129.0166,35.2762],[129.0169,35.2754],[129.0169,35.2753],[129.013,35.2748],[129.0116,35.2777],[129.0075,35.2815],[129.0063,35.2827],[129.0121,35.2864],[129.0122,35.2864]]],"type":"Polygon"},"id":"rc100-12","properties":{"geo_key":"2000010C1001051250","priority":1,"rmp_code":"2000010200912","source_feature_id":"rc100.fid--4e45399f_1a04c5d1742_606","source_layer":"rc100","zone_label":"하천구역","zone_type":"river_area"},"type":"Feature"},{"geometry":{"coordinates":[[[129.0171,35.2746],[129.0172,35.2743],[129.0173,35.2739],[129.0175,35.2734],[129.0176,35.2729],[129.0177,35.2726],[129.0178,35.2724],[129.0179,35.2722],[129.0179,35.272],[129.0179,35.2719],[129.018,35.2716],[129.018,35.2715],[129.018,35.2714],[129.018,35.2712],[129.018,35.271],[129.018,35.2709],[129.018,35.2707],[129.018,35.2705],[129.0179,35.2703],[129.0179,35.27],[129.0178,35.2699],[129.0177,35.2697],[129.0177,35.2695],[129.0176,35.2694],[129.0174,35.2689],[129.0172,35.2685],[129.017,35.2682],[129.0167,35.2677],[129.0164,35.2671],[129.0165,35.267],[129.0166,35.267],[129.0167,35.2669],[129.0165,35.2668],[129.0164,35.2668],[129.0163,35.2669],[129.0162,35.2668],[129.0161,35.2666],[129.0159,35.2662],[129.0157,35.266],[129.0155,35.2656],[129.0154,35.2653],[129.0153,35.2651],[129.0152,35.265],[129.0151,35.2647],[129.015,35.2645],[129.0149,35.2643],[129.0149,35.2642],[129.0148,35.2642],[129.0148,35.2641],[129.0148,35.264],[129.0146,35.2636],[129.0145,35.2635],[129.0144,35.2633],[129.0143,35.2631],[129.0141,35.2627],[129.014,35.2625],[129.0139,35.2624],[129.0139,35.2623],[129.0138,35.262],[129.0136,35.2616],[129.0134,35.2614],[129.0133,35.2611],[129.0132,35.2609],[129.0132,35.2608],[129.013,35.2604],[129.0128,35.2601],[129.0128,35.26],[129.0127,35.2599],[129.0127,35.2598],[129.0126,35.2597],[129.0125,35.2596],[129.0124,35.2594],[129.0123,35.2591],[129.0122,35.2589],[129.0121,35.2588],[129.012,35.2585],[129.0119,35.2583],[129.0118,35.258],[129.0117,35.2579],[129.0116,35.2577],[129.0115,35.2575],[129.0114,35.2573],[129.0113,35.2571],[129.0112,35.2568],[129.0111,35.2566],[129.011,35.2564],[129.0109,35.2562],[129.0108,35.2561],[129.0108,35.256],[129.0106,35.2556],[129.0105,35.2554],[129.0104,35.2551],[129.0103,35.255],[129.0103,35.2548],[129.0102,35.2547],[129.0102,35.2546],[129.0102,35.2545],[129.0101,35.2545],[129.01,35.254],[129.01,35.2538],[129.01,35.2535],[129.01,35.2534],[129.0099,35.2533],[129.0099,35.2532],[129.0099,35.2529],[129.0099,35.2526],[129.0099,35.2525],[129.0099,35.2524],[129.01,35.2521],[129.0099,35.2513],[129.0099,35.2512],[129.0099,35.2509],[129.0056,35.2515],[129.0061,35.2525],[129.0078,35.2561],[129.0098,35.2596],[129.0116,35.2634],[129.0133,35.267],[129.0148,35.2705],[129.0133,35.2741],[129.013,35.2748],[129.0169,35.2753],[129.017,35.275],[129.0171,35.2746]]],"type":"Polygon"},"id":"rc100-13","properties":{"geo_key":"2000010C1001044300","priority":1,"rmp_code":"2000010200912","source_feature_id":"rc100.fid--4e45399f_1a04c5d1742_607","source_layer":"rc100","zone_label":"하천구역","zone_type":"river_area"},"type":"Feature"},{"geometry":{"coordinates":[[[128.9986,35.2321],[128.9988,35.2315],[128.9991,35.2309],[128.9992,35.2307],[128.9996,35.2297],[128.9999,35.2291],[129.0002,35.2283],[129.0005,35.2275],[129.0006,35.2273],[129.0007,35.2271],[129.0008,35.2267],[129.0009,35.2262],[129.0013,35.2252],[129.0015,35.2243],[129.0017,35.2236],[129.0018,35.223],[129.0019,35.2225],[129.002,35.2218],[129.0021,35.221],[129.0022,35.2209],[129.0023,35.2201],[129.0023,35.2199],[129.0023,35.2198],[129.0023,35.2196],[129.0024,35.2194],[129.0024,35.2191],[129.0024,35.2188],[129.0025,35.2186],[129.0025,35.2183],[129.0024,35.2176],[129.0024,35.2172],[129.0023,35.2169],[129.0023,35.2164],[129.0022,35.2162],[129.0022,35.2158],[129.0022,35.2153],[129.002,35.2149],[129.0019,35.2146],[129.0017,35.2142],[129.0015,35.2138],[129.0013,35.2133],[129.0011,35.2128],[129.0008,35.2124],[129.0006,35.2122],[129.0005,35.2119],[129.0002,35.2115],[128.9999,35.2111],[128.9997,35.2107],[128.9995,35.2104],[128.9994,35.2102],[128.9991,35.2101],[128.9988,35.2098],[128.9985,35.2096],[128.9981,35.2094],[128.9979,35.2092],[128.9977,35.2089],[128.9975,35.2087],[128.9972,35.2084],[128.9969,35.2081],[128.996,35.2072],[128.9958,35.207],[128.9954,35.2065],[128.9952,35.2063],[128.9951,35.2062],[128.9948,35.206],[128.9942,35.2056],[128.9932,35.2052],[128.9922,35.2048],[128.9913,35.2044],[128.9905,35.2041],[128.9897,35.2038],[128.9895,35.2037],[128.9889,35.2033],[128.9881,35.2027],[128.9876,35.2025],[128.9872,35.2022],[128.987,35.202],[128.9858,35.2013],[128.9848,35.2007],[128.9842,35.2003],[128.9787,35.1989],[128.9774,35.1987],[128.9767,35.1985],[128.9759,35.1984],[128.9744,35.1978],[128.9732,35.1973],[128.9724,35.1966],[128.9715,35.196],[128.9708,35.1954],[128.9701,35.1948],[128.9697,35.1945],[128.9688,35.1937],[128.9677,35.1928],[128.9676,35.1926],[128.9675,35.1924],[128.9673,35.1921],[128.9669,35.1912],[128.9668,35.1912],[128.9667,35.1908],[128.9664,35.1902],[128.9662,35.1898],[128.9659,35.1892],[128.9658,35.189],[128.9657,35.1886],[128.9654,35.1881],[128.9652,35.1876],[128.965,35.187],[128.9649,35.1861],[128.9648,35.1857],[128.9645,35.1846],[128.9644,35.184],[128.9644,35.1837],[128.9645,35.1826],[128.9645,35.1822],[128.9645,35.1819],[128.9646,35.1804],[128.9645,35.1792],[128.9646,35.1778],[128.9646,35.1768],[128.9646,35.1764],[128.9645,35.1758],[128.9644,35.1755],[128.9644,35.1751],[128.9642,35.174],[128.9641,35.1732],[128.9641,35.1728],[128.9641,35.1724],[128.9641,35.1713],[128.9642,35.1705],[128.9641,35.1696],[128.9641,35.1695],[128.9641,35.1691],[128.964,35.169],[128.964,35.1687],[128.9639,35.1682],[128.9639,35.1679],[128.9639,35.1675],[128.9638,35.1665],[128.9638,35.166],[128.9638,35.1659],[128.9629,35.1633],[128.9628,35.1631],[128.9627,35.1627],[128.9626,35.1624],[128.9622,35.1612],[128.9619,35.1606],[128.9611,35.1594],[128.9607,35.1587],[128.9605,35.1585],[128.9603,35.158],[128.9599,35.157],[128.9598,35.1561],[128.9602,35.1552],[128.9602,35.1551],[128.9604,35.1546],[128.9608,35.1542],[128.9611,35.1538],[128.9616,35.1534],[128.9619,35.1531],[128.962,35.153],[128.9622,35.1528],[128.9629,35.1522],[128.9632,35.152],[128.9638,35.1515],[128.9641,35.1513],[128.9647,35.1508],[128.965,35.1506],[128.9653,35.1503],[128.9655,35.1501],[128.9659,35.1494],[128.966,35.1492],[128.9662,35.1489],[128.9664,35.1486],[128.9666,35.1483],[128.9668,35.1479],[128.9668,35.1478],[128.9668,35.1474],[128.9668,35.1468],[128.9667,35.1459],[128.9664,35.145],[128.9663,35.1445],[128.9662,35.1443],[128.966,35.1438],[128.9659,35.1434],[128.9658,35.143],[128.9657,35.1427],[128.9656,35.1424],[128.9653,35.1418],[128.9651,35.1412],[128.9649,35.1407],[128.9642,35.1387],[128.964,35.1381],[128.9639,35.1377],[128.9637,35.1371],[128.9634,35.1368],[128.9622,35.1368],[128.9609,35.1367],[128.9594,35.1366],[128.958,35.1358],[128.9567,35.1351],[128.9552,35.1335],[128.9548,35.1331],[128.9544,35.1327],[128.954,35.1322],[128.9531,35.1313],[128.9526,35.1307],[128.9519,35.1299],[128.9513,35.129],[128.9496,35.1263],[128.9493,35.1258],[128.9492,35.1255],[128.949,35.1251],[128.9488,35.1247],[128.9484,35.1241],[128.9483,35.1238],[128.9481,35.1233],[128.9479,35.1229],[128.9478,35.1227],[128.9458,35.1219],[128.9447,35.1212],[128.9429,35.1196],[128.9427,35.1195],[128.942,35.1191],[128.9415,35.1186],[128.9407,35.1177],[128.9403,35.1172],[128.9387,35.1155],[128.9383,35.1148],[128.9382,35.1141],[128.9375,35.1137],[128.9366,35.1131],[128.9349,35.1119],[128.9352,35.1104],[128.9353,35.1099],[128.9353,35.1096],[128.9317,35.1104],[128.9318,35.1107],[128.9319,35.1108],[128.9319,35.111],[128.932,35.111],[128.932,35.1111],[128.9321,35.1112],[128.9321,35.1113],[128.9322,35.1114],[128.9322,35.1115],[128.9323,35.1116],[128.9323,35.1117],[128.9324,35.1118],[128.9325,35.1119],[128.9325,35.112],[128.9326,35.1121],[128.9327,35.1122],[128.9328,35.1123],[128.9328,35.1124],[128.9329,35.1125],[128.9329,35.1126],[128.9333,35.1131],[128.9334,35.1132],[128.9336,35.1135],[128.9341,35.1143],[128.9351,35.1159],[128.9354,35.1164],[128.9356,35.1167],[128.9361,35.1176],[128.9365,35.1182],[128.9373,35.1194],[128.9378,35.1202],[128.938,35.1205],[128.9388,35.1217],[128.9401,35.1238],[128.9401,35.1237],[128.9403,35.1241],[128.9404,35.1242],[128.9405,35.1244],[128.9406,35.1247],[128.9407,35.1248],[128.9408,35.125],[128.941,35.1253],[128.9414,35.1259],[128.9415,35.1261],[128.9417,35.1264],[128.942,35.1269],[128.942,35.127],[128.9426,35.128],[128.9428,35.1283],[128.9428,35.1284],[128.9429,35.1285],[128.9432,35.129],[128.9435,35.1297],[128.9437,35.1299],[128.9437,35.13],[128.9438,35.1302],[128.9439,35.1303],[128.944,35.1305],[128.9441,35.1307],[128.9442,35.1309],[128.9444,35.1313],[128.9445,35.1314],[128.945,35.1323],[128.9453,35.1328],[128.9453,35.1329],[128.9456,35.1335],[128.9457,35.1335],[128.9457,35.1336],[128.9457,35.1337],[128.9458,35.1338],[128.946,35.1341],[128.9462,35.1345],[128.9468,35.1357],[128.9471,35.1364],[128.9472,35.1364],[128.9475,35.1371],[128.9478,35.1377],[128.9479,35.1378],[128.9483,35.1387],[128.9483,35.1388],[128.9485,35.1391],[128.949,35.14],[128.949,35.1401],[128.9493,35.1407],[128.9496,35.1413],[128.9496,35.1414],[128.95,35.1423],[128.9501,35.1425],[128.9503,35.143],[128.9503,35.1431],[128.9508,35.1441],[128.9512,35.1449],[128.9514,35.1455],[128.9517,35.1461],[128.9518,35.1464],[128.952,35.1467],[128.9522,35.1472],[128.9523,35.1476],[128.9524,35.1478],[128.9525,35.1479],[128.9527,35.1486],[128.9528,35.1487],[128.9528,35.1488],[128.9529,35.149],[128.9529,35.1491],[128.953,35.1493],[128.9531,35.1494],[128.9531,35.1495],[128.9533,35.1499],[128.9533,35.15],[128.9534,35.1503],[128.9535,35.1504],[128.9536,35.1505],[128.9536,35.1507],[128.9537,35.1509],[128.9537,35.151],[128.9538,35.1511],[128.9539,35.1514],[128.954,35.1515],[128.9541,35.1518],[128.9542,35.1521],[128.9543,35.1524],[128.9545,35.1528],[128.9558,35.1558],[128.956,35.1562],[128.956,35.1564],[128.9561,35.1566],[128.9564,35.1572],[128.9566,35.1578],[128.9567,35.1581],[128.9568,35.1583],[128.9569,35.1586],[128.957,35.1589],[128.9571,35.1589],[128.9573,35.1593],[128.9573,35.1594],[128.9574,35.1597],[128.9575,35.1597],[128.9575,35.1598],[128.9576,35.1601],[128.9577,35.1603],[128.9578,35.1605],[128.9579,35.1609],[128.958,35.1611],[128.9582,35.1617],[128.9584,35.1621],[128.9585,35.1623],[128.9586,35.1625],[128.9587,35.1626],[128.9587,35.1627],[128.9589,35.1632],[128.959,35.1634],[128.959,35.1635],[128.959,35.1636],[128.9592,35.164],[128.9592,35.1641],[128.9593,35.1644],[128.9593,35.1645],[128.9594,35.1648],[128.9596,35.1654],[128.9596,35.1656],[128.9597,35.166],[128.9598,35.1663],[128.9599,35.1667],[128.96,35.1669],[128.96,35.1671],[128.9601,35.1675],[128.9601,35.1677],[128.9601,35.1679],[128.9602,35.1679],[128.9603,35.1685],[128.9603,35.169],[128.9603,35.1691],[128.9603,35.1693],[128.9603,35.1694],[128.9604,35.17],[128.9604,35.1706],[128.9604,35.1709],[128.9604,35.1711],[128.9604,35.1713],[128.9604,35.1715],[128.9604,35.1719],[128.9603,35.1721],[128.9603,35.1723],[128.9603,35.1724],[128.9603,35.1728],[128.9603,35.1731],[128.9602,35.1732],[128.9602,35.1733],[128.9601,35.1735],[128.9601,35.1736],[128.96,35.1738],[128.9598,35.1745],[128.9596,35.1751],[128.9594,35.1755],[128.9593,35.1756],[128.959,35.1765],[128.9589,35.1768],[128.9588,35.1771],[128.9587,35.1775],[128.9586,35.1777],[128.9585,35.1779],[128.9584,35.1782],[128.9584,35.1783],[128.9583,35.1787],[128.9582,35.1792],[128.9582,35.1796],[128.9582,35.1802],[128.9583,35.1808],[128.9583,35.181],[128.9583,35.1813],[128.9584,35.1816],[128.9585,35.1818],[128.9585,35.1819],[128.9586,35.1821],[128.9587,35.1824],[128.9588,35.1827],[128.959,35.1832],[128.9593,35.1837],[128.9594,35.184],[128.9595,35.1843],[128.9597,35.1849],[128.9598,35.1852],[128.9598,35.1853],[128.9599,35.1855],[128.96,35.1858],[128.9601,35.1861],[128.9601,35.1864],[128.9603,35.1868],[128.9603,35.1871],[128.9604,35.1874],[128.9606,35.1879],[128.9608,35.1885],[128.9609,35.1888],[128.9609,35.1889],[128.961,35.1891],[128.9612,35.1894],[128.9613,35.1898],[128.9614,35.1899],[128.9614,35.1902],[128.9616,35.1905],[128.9617,35.1907],[128.9619,35.1911],[128.9621,35.1916],[128.9623,35.192],[128.9625,35.1924],[128.9627,35.1928],[128.9629,35.1931],[128.9631,35.1934],[128.9632,35.1936],[128.9633,35.1937],[128.9634,35.1939],[128.9634,35.194],[128.9636,35.1942],[128.9639,35.1946],[128.9639,35.1947],[128.9641,35.1949],[128.9644,35.1953],[128.9646,35.1956],[128.9649,35.1959],[128.9652,35.1962],[128.9654,35.1964],[128.9655,35.1964],[128.9655,35.1965],[128.9657,35.1967],[128.9658,35.1968],[128.9658,35.1969],[128.966,35.1971],[128.9662,35.1972],[128.9665,35.1975],[128.9666,35.1976],[128.9668,35.1978],[128.9671,35.1981],[128.9672,35.1982],[128.9673,35.1983],[128.9675,35.1984],[128.9675,35.1985],[128.9676,35.1986],[128.9679,35.1988],[128.9681,35.199],[128.9683,35.1992],[128.9684,35.1992],[128.9687,35.1996],[128.9689,35.1997],[128.9691,35.1999],[128.9692,35.1999],[128.9694,35.2001],[128.9696,35.2003],[128.97,35.2006],[128.9703,35.2008],[128.9705,35.2009],[128.9705,35.201],[128.9708,35.2012],[128.9709,35.2013],[128.971,35.2013],[128.9711,35.2014],[128.9711,35.2015],[128.9714,35.2016],[128.972,35.202],[128.9719,35.202],[128.9731,35.2028],[128.9736,35.2032],[128.9738,35.2033],[128.9739,35.2033],[128.9743,35.2036],[128.9746,35.2038],[128.975,35.2041],[128.9753,35.2043],[128.9757,35.2046],[128.9763,35.2049],[128.9768,35.2053],[128.9774,35.2057],[128.9775,35.2057],[128.9779,35.206],[128.978,35.206],[128.9783,35.2062],[128.9789,35.2066],[128.9791,35.2067],[128.9792,35.2067],[128.9794,35.2069],[128.98,35.2072],[128.9802,35.2073],[128.9804,35.2074],[128.9809,35.2078],[128.9811,35.2079],[128.9817,35.2082],[128.9822,35.2085],[128.9826,35.2088],[128.9829,35.2089],[128.9834,35.2093],[128.984,35.2096],[128.9841,35.2097],[128.9842,35.2098],[128.9845,35.21],[128.9846,35.21],[128.9848,35.2102],[128.985,35.2104],[128.9851,35.2104],[128.9851,35.2105],[128.9854,35.2106],[128.9855,35.2108],[128.9857,35.211],[128.986,35.2113],[128.9861,35.2113],[128.9863,35.2116],[128.9866,35.2119],[128.9868,35.2122],[128.9871,35.2126],[128.9872,35.2125],[128.9873,35.2126],[128.9875,35.2129],[128.9877,35.2133],[128.9883,35.2141],[128.9885,35.2144],[128.9886,35.2146],[128.9887,35.2146],[128.9888,35.2149],[128.9891,35.2154],[128.9894,35.2159],[128.9895,35.216],[128.9897,35.2164],[128.9902,35.2174],[128.9903,35.2176],[128.9904,35.2178],[128.9906,35.2183],[128.9908,35.2188],[128.9911,35.2194],[128.9912,35.2197],[128.9913,35.2198],[128.9913,35.22],[128.9914,35.2201],[128.9914,35.2202],[128.9914,35.2203],[128.9915,35.2205],[128.9916,35.2208],[128.9917,35.221],[128.9917,35.2212],[128.9918,35.2214],[128.9919,35.2217],[128.992,35.222],[128.992,35.2222],[128.9921,35.2225],[128.9922,35.2228],[128.9922,35.2231],[128.9922,35.2232],[128.9922,35.2233],[128.9924,35.2242],[128.9927,35.226],[128.9928,35.2266],[128.9929,35.2272],[128.993,35.2277],[128.9931,35.2282],[128.993,35.2282],[128.9929,35.2285],[128.9928,35.2286],[128.9928,35.2289],[128.9929,35.2289],[128.9929,35.2293],[128.993,35.2298],[128.993,35.2301],[128.9931,35.2303],[128.9931,35.2306],[128.9932,35.2309],[128.9933,35.231],[128.9936,35.2313],[128.9936,35.2315],[128.9937,35.2317],[128.9937,35.2318],[128.9937,35.2322],[128.9938,35.2324],[128.9938,35.2326],[128.9986,35.2321]]],"type":"Polygon"},"id":"rc100-14","properties":{"geo_key":"2000010C1002000000","priority":1,"rmp_code":"2000010200912","source_feature_id":"rc100.fid--4e45399f_1a04c5d1742_608","source_layer":"rc100","zone_label":"하천구역","zone_type":"river_area"},"type":"Feature"},{"geometry":{"coordinates":[[[129.0049,35.22],[129.0049,35.2195],[129.0048,35.2191],[129.0047,35.2187],[129.0045,35.2179],[129.0045,35.2178],[129.0044,35.2177],[129.0044,35.2175],[129.0043,35.2171],[129.0043,35.2169],[129.0043,35.2168],[129.0042,35.2167],[129.0042,35.2166],[129.0042,35.2165],[129.0042,35.2163],[129.0041,35.2159],[129.004,35.2158],[129.004,35.2157],[129.004,35.2155],[129.0039,35.2153],[129.0039,35.2152],[129.0039,35.2151],[129.0038,35.215],[129.0038,35.2149],[129.0038,35.2148],[129.0038,35.2146],[129.0037,35.2145],[129.0037,35.2143],[129.0036,35.2139],[129.0035,35.2135],[129.0015,35.2138],[129.0017,35.2142],[129.0019,35.2146],[129.002,35.2149],[129.0022,35.2153],[129.0022,35.2158],[129.0022,35.2162],[129.0023,35.2164],[129.0023,35.2169],[129.0024,35.2172],[129.0024,35.2176],[129.0025,35.2183],[129.0025,35.2186],[129.0024,35.2188],[129.0024,35.2191],[129.0024,35.2194],[129.0023,35.2196],[129.0023,35.2198],[129.0023,35.2199],[129.0023,35.2201],[129.0022,35.2209],[129.005,35.2204],[129.0049,35.22]]],"type":"Polygon"},"id":"rc100-15","properties":{"geo_key":"2000010C1001034335","priority":1,"rmp_code":"2000010200912","source_feature_id":"rc100.fid--4e45399f_1a04c5d1742_609","source_layer":"rc100","zone_label":"하천구역","zone_type":"river_area"},"type":"Feature"},{"geometry":{"coordinates":[[[129.0003,35.2097],[129.0002,35.2096],[129.0001,35.2096],[129.0,35.2096],[128.9999,35.2096],[128.9998,35.2095],[128.9997,35.2094],[128.9996,35.2094],[128.9994,35.2092],[128.9991,35.209],[128.999,35.209],[128.9989,35.2088],[128.9988,35.2088],[128.9987,35.2087],[128.9984,35.2084],[128.9981,35.2081],[128.9979,35.2079],[128.9977,35.2077],[128.9972,35.2071],[128.9968,35.2067],[128.9963,35.2062],[128.9962,35.2061],[128.996,35.2059],[128.9959,35.2058],[128.9955,35.2054],[128.9951,35.205],[128.995,35.2049],[128.9945,35.2043],[128.9942,35.2039],[128.9941,35.2038],[128.994,35.2037],[128.9935,35.203],[128.9934,35.2029],[128.993,35.2025],[128.9927,35.2022],[128.9926,35.2021],[128.9924,35.2018],[128.9917,35.201],[128.9915,35.2009],[128.9914,35.2007],[128.9911,35.2004],[128.991,35.2003],[128.9907,35.1999],[128.9905,35.1997],[128.9901,35.1994],[128.99,35.1993],[128.9897,35.199],[128.9897,35.1989],[128.9892,35.1984],[128.9888,35.198],[128.9885,35.1978],[128.9885,35.1977],[128.9883,35.1976],[128.9882,35.1974],[128.9878,35.1971],[128.9869,35.1964],[128.986,35.1957],[128.9859,35.1955],[128.9858,35.1955],[128.9858,35.1954],[128.9854,35.1952],[128.9851,35.1949],[128.985,35.1948],[128.9847,35.1946],[128.9842,35.1942],[128.9839,35.194],[128.9831,35.1933],[128.9827,35.1929],[128.9824,35.1927],[128.982,35.1924],[128.9818,35.1922],[128.9816,35.1919],[128.9815,35.1918],[128.9811,35.1915],[128.981,35.1913],[128.9809,35.1912],[128.9808,35.1911],[128.9806,35.1908],[128.9804,35.1905],[128.9802,35.1904],[128.9801,35.1902],[128.9797,35.1898],[128.9794,35.1894],[128.979,35.1889],[128.9788,35.1886],[128.9786,35.1884],[128.9785,35.1882],[128.9783,35.188],[128.9782,35.1879],[128.9779,35.1875],[128.9778,35.1872],[128.9777,35.1871],[128.9773,35.1864],[128.9771,35.186],[128.9769,35.1857],[128.9767,35.1852],[128.9766,35.1848],[128.9765,35.1847],[128.9764,35.1842],[128.9763,35.1841],[128.9763,35.184],[128.9762,35.1838],[128.9762,35.1837],[128.9761,35.1833],[128.9761,35.1831],[128.976,35.1826],[128.9759,35.1823],[128.9759,35.1821],[128.9758,35.1816],[128.9758,35.1814],[128.9758,35.1811],[128.9758,35.181],[128.9758,35.1806],[128.9759,35.1799],[128.9759,35.1797],[128.9759,35.1796],[128.9759,35.1794],[128.9759,35.1791],[128.976,35.1786],[128.976,35.1785],[128.976,35.1781],[128.976,35.178],[128.9761,35.1776],[128.9762,35.177],[128.9762,35.1768],[128.9762,35.1764],[128.9762,35.1763],[128.9762,35.1761],[128.9763,35.1759],[128.9764,35.175],[128.9764,35.1747],[128.9765,35.1737],[128.9765,35.1734],[128.9766,35.1731],[128.9766,35.1728],[128.9766,35.1722],[128.9766,35.1719],[128.9767,35.1715],[128.9767,35.1713],[128.9767,35.171],[128.9767,35.1707],[128.9767,35.1704],[128.9767,35.1696],[128.9766,35.1693],[128.9766,35.1692],[128.9766,35.1683],[128.9766,35.1682],[128.9765,35.1677],[128.9764,35.1672],[128.9763,35.1664],[128.9763,35.1663],[128.9762,35.1659],[128.9761,35.165],[128.976,35.1645],[128.9757,35.1634],[128.9754,35.1625],[128.9752,35.1618],[128.9749,35.1607],[128.9749,35.1605],[128.9741,35.1579],[128.9738,35.157],[128.9734,35.1556],[128.9732,35.1552],[128.9731,35.1548],[128.9721,35.1515],[128.9717,35.1504],[128.9715,35.1501],[128.971,35.1488],[128.9708,35.1482],[128.9705,35.1475],[128.9693,35.145],[128.9682,35.1425],[128.9675,35.1407],[128.9673,35.1402],[128.9672,35.1398],[128.967,35.1388],[128.967,35.1377],[128.9669,35.1376],[128.9668,35.1376],[128.9668,35.1375],[128.9668,35.1373],[128.9668,35.1372],[128.9667,35.1372],[128.9666,35.1372],[128.9666,35.1371],[128.9666,35.1369],[128.9663,35.136],[128.9661,35.1357],[128.9661,35.1354],[128.966,35.1351],[128.9657,35.1344],[128.9657,35.1343],[128.9654,35.1333],[128.9653,35.1332],[128.9651,35.1326],[128.965,35.1323],[128.9649,35.132],[128.9647,35.1312],[128.9645,35.1306],[128.9644,35.1304],[128.9642,35.1298],[128.9642,35.1297],[128.9641,35.1294],[128.964,35.1293],[128.964,35.1292],[128.9636,35.1294],[128.954,35.1322],[128.9544,35.1327],[128.9548,35.1331],[128.9552,35.1335],[128.9567,35.1351],[128.958,35.1358],[128.9594,35.1366],[128.9609,35.1367],[128.9622,35.1368],[128.9634,35.1368],[128.9637,35.1371],[128.9639,35.1377],[128.964,35.1381],[128.9642,35.1387],[128.9649,35.1407],[128.9651,35.1412],[128.9653,35.1418],[128.9656,35.1424],[128.9657,35.1427],[128.9658,35.143],[128.9659,35.1434],[128.966,35.1438],[128.9662,35.1443],[128.9663,35.1445],[128.9664,35.145],[128.9667,35.1459],[128.9668,35.1468],[128.9668,35.1474],[128.9668,35.1478],[128.9668,35.1479],[128.9666,35.1483],[128.9664,35.1486],[128.9662,35.1489],[128.966,35.1492],[128.9659,35.1494],[128.9655,35.1501],[128.9653,35.1503],[128.965,35.1506],[128.9647,35.1508],[128.9641,35.1513],[128.9638,35.1515],[128.9632,35.152],[128.9629,35.1522],[128.9622,35.1528],[128.962,35.153],[128.9619,35.1531],[128.9616,35.1534],[128.9611,35.1538],[128.9608,35.1542],[128.9604,35.1546],[128.9602,35.1551],[128.9602,35.1552],[128.9598,35.1561],[128.9599,35.157],[128.9603,35.158],[128.9605,35.1585],[128.9607,35.1587],[128.9611,35.1594],[128.9619,35.1606],[128.9622,35.1612],[128.9626,35.1624],[128.9627,35.1627],[128.9628,35.1631],[128.9629,35.1633],[128.9638,35.1659],[128.9638,35.166],[128.9638,35.1665],[128.9639,35.1675],[128.9639,35.1679],[128.9639,35.1682],[128.964,35.1687],[128.964,35.169],[128.9641,35.1691],[128.9641,35.1695],[128.9641,35.1696],[128.9642,35.1705],[128.9641,35.1713],[128.9641,35.1724],[128.9641,35.1728],[128.9641,35.1732],[128.9642,35.174],[128.9644,35.1751],[128.9644,35.1755],[128.9645,35.1758],[128.9646,35.1764],[128.9646,35.1768],[128.9646,35.1778],[128.9645,35.1792],[128.9646,35.1804],[128.9645,35.1819],[128.9645,35.1822],[128.9645,35.1826],[128.9644,35.1837],[128.9644,35.184],[128.9645,35.1846],[128.9648,35.1857],[128.9649,35.1861],[128.965,35.187],[128.9652,35.1876],[128.9654,35.1881],[128.9657,35.1886],[128.9658,35.189],[128.9659,35.1892],[128.9662,35.1898],[128.9664,35.1902],[128.9667,35.1908],[128.9668,35.1912],[128.9669,35.1912],[128.9673,35.1921],[128.9675,35.1924],[128.9676,35.1926],[128.9677,35.1928],[128.9688,35.1937],[128.9697,35.1945],[128.9701,35.1948],[128.9708,35.1954],[128.9715,35.196],[128.9724,35.1966],[128.9732,35.1973],[128.9744,35.1978],[128.9759,35.1984],[128.9767,35.1985],[128.9774,35.1987],[128.9787,35.1989],[128.9842,35.2003],[128.9848,35.2007],[128.9858,35.2013],[128.987,35.202],[128.9872,35.2022],[128.9876,35.2025],[128.9881,35.2027],[128.9889,35.2033],[128.9895,35.2037],[128.9897,35.2038],[128.9905,35.2041],[128.9913,35.2044],[128.9922,35.2048],[128.9932,35.2052],[128.9942,35.2056],[128.9948,35.206],[128.9951,35.2062],[128.9952,35.2063],[128.9954,35.2065],[128.9958,35.207],[128.996,35.2072],[128.9969,35.2081],[128.9972,35.2084],[128.9975,35.2087],[128.9977,35.2089],[128.9979,35.2092],[128.9981,35.2094],[128.9985,35.2096],[128.9988,35.2098],[128.9991,35.2101],[128.9994,35.2102],[128.9995,35.2104],[129.0005,35.2098],[129.0003,35.2097]]],"type":"Polygon"},"id":"rc100-16","properties":{"geo_key":"2000010C1001006395","priority":1,"rmp_code":"2000010200912","source_feature_id":"rc100.fid--4e45399f_1a04c5d1742_60a","source_layer":"rc100","zone_label":"하천구역","zone_type":"river_area"},"type":"Feature"},{"geometry":{"coordinates":[[[128.9624,35.1258],[128.9621,35.125],[128.9615,35.1229],[128.9606,35.1205],[128.9594,35.1166],[128.9582,35.113],[128.958,35.1126],[128.958,35.1123],[128.9579,35.112],[128.9575,35.1102],[128.9571,35.1084],[128.9571,35.1083],[128.9571,35.1082],[128.957,35.1081],[128.957,35.1079],[128.957,35.1078],[128.9569,35.1077],[128.9569,35.1076],[128.9569,35.1075],[128.9569,35.1074],[128.9568,35.1072],[128.9568,35.107],[128.9568,35.1069],[128.9567,35.1069],[128.9567,35.1068],[128.9566,35.1068],[128.9566,35.1067],[128.9565,35.1067],[128.9564,35.1067],[128.9561,35.1067],[128.9561,35.1066],[128.9533,35.107],[128.9519,35.1071],[128.9513,35.1072],[128.9505,35.1074],[128.9504,35.1074],[128.9504,35.1072],[128.9487,35.1074],[128.9473,35.1076],[128.9457,35.1079],[128.9433,35.1083],[128.9377,35.109],[128.9364,35.1093],[128.9353,35.1096],[128.9353,35.1099],[128.9352,35.1104],[128.9349,35.1119],[128.9366,35.1131],[128.9375,35.1137],[128.9382,35.1141],[128.9383,35.1148],[128.9387,35.1155],[128.9403,35.1172],[128.9407,35.1177],[128.9415,35.1186],[128.942,35.1191],[128.9427,35.1195],[128.9429,35.1196],[128.9447,35.1212],[128.9458,35.1219],[128.9478,35.1227],[128.9479,35.1229],[128.9481,35.1233],[128.9483,35.1238],[128.9484,35.1241],[128.9488,35.1247],[128.949,35.1251],[128.9492,35.1255],[128.9493,35.1258],[128.9496,35.1263],[128.9513,35.129],[128.9519,35.1299],[128.9526,35.1307],[128.9531,35.1313],[128.954,35.1322],[128.9636,35.1294],[128.9624,35.1258]],[[128.9518,35.1189],[128.9512,35.1189],[128.9511,35.1187],[128.951,35.1186],[128.9499,35.1185],[128.9498,35.1184],[128.9497,35.1183],[128.9496,35.1176],[128.9509,35.1175],[128.9509,35.1174],[128.9494,35.1174],[128.9494,35.1176],[128.9489,35.1176],[128.949,35.1168],[128.949,35.1164],[128.949,35.1155],[128.9491,35.1147],[128.9492,35.1144],[128.9498,35.1133],[128.9499,35.1129],[128.95,35.1131],[128.9502,35.1141],[128.9503,35.1145],[128.9504,35.1148],[128.9505,35.1151],[128.9506,35.1153],[128.9507,35.1154],[128.9509,35.1156],[128.9512,35.1161],[128.9516,35.1167],[128.9517,35.1169],[128.9519,35.1191],[128.9518,35.1189]],[[128.9468,35.1115],[128.9467,35.111],[128.9466,35.1109],[128.9465,35.1109],[128.9464,35.1102],[128.9463,35.1102],[128.9462,35.1102],[128.9462,35.1106],[128.9462,35.1113],[128.946,35.1103],[128.9451,35.1104],[128.945,35.1104],[128.9451,35.1107],[128.945,35.1107],[128.9439,35.1109],[128.9437,35.11],[128.9437,35.1097],[128.9436,35.1094],[128.9435,35.1091],[128.9435,35.1094],[128.9435,35.1104],[128.9432,35.111],[128.9432,35.1114],[128.9428,35.1116],[128.9422,35.1118],[128.9417,35.1118],[128.9416,35.1114],[128.9417,35.1112],[128.9416,35.1102],[128.9415,35.109],[128.9419,35.1089],[128.9435,35.1087],[128.9439,35.1086],[128.9452,35.1084],[128.9452,35.1083],[128.9458,35.1082],[128.9462,35.1081],[128.9469,35.108],[128.9484,35.1078],[128.9484,35.1079],[128.9485,35.1078],[128.9485,35.1079],[128.9486,35.1081],[128.9493,35.1114],[128.9488,35.1115],[128.9478,35.1116],[128.9469,35.1117],[128.9468,35.1115]]],"type":"Polygon"},"id":"rc100-17","properties":{"geo_key":"2000010C1001000000","priority":1,"rmp_code":"2000010200912","source_feature_id":"rc100.fid--4e45399f_1a04c5d1742_60b","source_layer":"rc100","zone_label":"하천구역","zone_type":"river_area"},"type":"Feature"},{"geometry":{"coordinates":[[[[128.9417,35.1118],[128.9422,35.1118],[128.9428,35.1116],[128.9432,35.1114],[128.9432,35.111],[128.9435,35.1104],[128.9435,35.1094],[128.9435,35.1091],[128.9435,35.1087],[128.9419,35.1089],[128.9415,35.109],[128.9416,35.1102],[128.9417,35.1112],[128.9416,35.1114],[128.9417,35.1118]]],[[[128.9462,35.1113],[128.9462,35.1106],[128.9462,35.1102],[128.946,35.1103],[128.9462,35.1113]]],[[[128.9502,35.1141],[128.95,35.1131],[128.9499,35.1129],[128.9498,35.1133],[128.9492,35.1144],[128.9491,35.1147],[128.949,35.1155],[128.949,35.1164],[128.949,35.1168],[128.9489,35.1176],[128.9494,35.1176],[128.9494,35.1174],[128.9509,35.1174],[128.9509,35.1175],[128.9496,35.1176],[128.9497,35.1183],[128.9498,35.1184],[128.9499,35.1185],[128.951,35.1186],[128.9511,35.1187],[128.9512,35.1189],[128.9518,35.1189],[128.9519,35.1191],[128.9517,35.1169],[128.9516,35.1167],[128.9512,35.1161],[128.9509,35.1156],[128.9507,35.1154],[128.9506,35.1153],[128.9505,35.1151],[128.9504,35.1148],[128.9503,35.1145],[128.9502,35.1141]]]],"type":"MultiPolygon"},"id":"rc100-18","properties":{"geo_key":"2000010C1001000005","priority":1,"rmp_code":"2000010200912","source_feature_id":"rc100.fid--4e45399f_1a04c5d1742_60d","source_layer":"rc100","zone_label":"하천구역","zone_type":"river_area"},"type":"Feature"},{"geometry":{"coordinates":[[[128.9595,35.1171],[128.9594,35.1166],[128.9587,35.1147],[128.9587,35.1146],[128.9582,35.113],[128.958,35.1126],[128.958,35.1123],[128.9579,35.112],[128.9575,35.1102],[128.9571,35.1084],[128.9571,35.1083],[128.9571,35.1082],[128.957,35.1081],[128.957,35.1079],[128.957,35.1078],[128.9569,35.1077],[128.9569,35.1076],[128.9569,35.1075],[128.9569,35.1074],[128.9568,35.1072],[128.9568,35.107],[128.9568,35.1069],[128.9567,35.1069],[128.9567,35.1068],[128.9566,35.1068],[128.9566,35.1067],[128.9565,35.1067],[128.9564,35.1067],[128.9561,35.1067],[128.9561,35.1066],[128.9533,35.107],[128.9519,35.1071],[128.9513,35.1072],[128.9505,35.1074],[128.9504,35.1074],[128.9504,35.1072],[128.9487,35.1074],[128.9473,35.1076],[128.9462,35.1078],[128.9457,35.1079],[128.9433,35.1083],[128.9377,35.109],[128.9365,35.1093],[128.938,35.1118],[128.943,35.1167],[128.9474,35.1208],[128.9476,35.121],[128.9479,35.1212],[128.9482,35.1215],[128.95,35.123],[128.9511,35.1236],[128.9561,35.1237],[128.9564,35.125],[128.9587,35.1302],[128.9588,35.1306],[128.9595,35.1323],[128.9598,35.134],[128.9652,35.1327],[128.9651,35.1326],[128.965,35.1323],[128.9649,35.132],[128.9647,35.1312],[128.9645,35.1306],[128.9644,35.1304],[128.9643,35.1302],[128.9642,35.1298],[128.9642,35.1297],[128.9641,35.1294],[128.964,35.1293],[128.964,35.1292],[128.9636,35.1294],[128.9636,35.1292],[128.9633,35.1285],[128.9626,35.1263],[128.9624,35.1258],[128.9621,35.125],[128.962,35.1244],[128.9618,35.1239],[128.9617,35.1236],[128.9615,35.1229],[128.9612,35.1223],[128.9611,35.1219],[128.9608,35.1209],[128.9606,35.1205],[128.9604,35.1198],[128.9595,35.1171]]],"type":"Polygon"},"id":"rc161_dst-1","properties":{"geo_key":"2000010C161L0010001","priority":2,"rmp_code":"2000010200912","source_feature_id":"rc161_dst.fid-5171e1cf_1a04cd28d8d_-4a0b","source_layer":"rc161_dst","zone_label":"일반보전지구","zone_type":"general_conservation"},"type":"Feature"},{"geometry":{"coordinates":[[[128.9945,35.2888],[128.9944,35.2889],[128.9943,35.2889],[128.9944,35.289],[128.9943,35.2891],[128.9943,35.2892],[128.9942,35.2892],[128.9941,35.2893],[128.994,35.2893],[128.9939,35.2893],[128.9939,35.2894],[128.9938,35.2894],[128.9937,35.2895],[128.9936,35.2895],[128.9936,35.2896],[128.9935,35.2896],[128.9935,35.2897],[128.9934,35.2897],[128.9933,35.2897],[128.9933,35.2898],[128.9932,35.2898],[128.9931,35.2898],[128.993,35.2898],[128.9929,35.2898],[128.9928,35.2898],[128.9927,35.2898],[128.9926,35.2898],[128.9925,35.2898],[128.9925,35.2897],[128.9924,35.2897],[128.9923,35.2897],[128.9922,35.2897],[128.9921,35.2898],[128.992,35.2898],[128.9919,35.2898],[128.9918,35.2899],[128.9917,35.2899],[128.9916,35.2899],[128.9916,35.2898],[128.9915,35.2898],[128.9915,35.2899],[128.9914,35.29],[128.9913,35.29],[128.9912,35.29],[128.9912,35.2901],[128.991,35.2902],[128.9909,35.2903],[128.9907,35.2903],[128.9906,35.2903],[128.9905,35.2904],[128.9904,35.2904],[128.9903,35.2904],[128.9902,35.2904],[128.9901,35.2904],[128.9899,35.2904],[128.9897,35.2904],[128.9895,35.2904],[128.9894,35.2904],[128.9893,35.2904],[128.9892,35.2905],[128.9892,35.2906],[128.9891,35.2906],[128.989,35.2906],[128.989,35.2907],[128.989,35.2908],[128.9889,35.2909],[128.9888,35.2909],[128.9885,35.291],[128.9884,35.291],[128.9882,35.2911],[128.9881,35.2911],[128.988,35.2911],[128.988,35.2912],[128.9879,35.2912],[128.9878,35.2912],[128.9877,35.2912],[128.9876,35.2912],[128.9875,35.2912],[128.9875,35.2914],[128.9873,35.2914],[128.987,35.2914],[128.9869,35.2914],[128.9867,35.2914],[128.9865,35.2915],[128.9863,35.2915],[128.9861,35.2916],[128.986,35.2917],[128.9859,35.2918],[128.9858,35.2918],[128.9857,35.2919],[128.9856,35.292],[128.9856,35.2922],[128.9857,35.2923],[128.9856,35.2924],[128.9855,35.2924],[128.9854,35.2925],[128.9854,35.2926],[128.9853,35.2926],[128.9853,35.2927],[128.9852,35.2927],[128.9851,35.2928],[128.985,35.2928],[128.9849,35.2928],[128.9848,35.2928],[128.9847,35.2929],[128.9846,35.2929],[128.9845,35.2928],[128.9845,35.2927],[128.9844,35.2927],[128.9844,35.2926],[128.9843,35.2926],[128.9842,35.2926],[128.9842,35.2927],[128.9841,35.2927],[128.984,35.2927],[128.9839,35.2927],[128.9839,35.2926],[128.9838,35.2926],[128.9837,35.2925],[128.9836,35.2925],[128.9835,35.2925],[128.9834,35.2926],[128.9833,35.2926],[128.9832,35.2926],[128.9831,35.2926],[128.983,35.2926],[128.9829,35.2926],[128.9829,35.2927],[128.9829,35.2928],[128.9828,35.2928],[128.9827,35.2929],[128.9827,35.293],[128.9826,35.293],[128.9826,35.2931],[128.9825,35.2931],[128.9824,35.2932],[128.9823,35.2932],[128.9823,35.2933],[128.9822,35.2933],[128.9822,35.2934],[128.9821,35.2935],[128.9823,35.2935],[128.9824,35.2935],[128.9822,35.2936],[128.982,35.2938],[128.9819,35.2939],[128.982,35.294],[128.9819,35.294],[128.9819,35.2941],[128.9818,35.2942],[128.9819,35.2943],[128.9818,35.2943],[128.9817,35.2944],[128.9816,35.2944],[128.9816,35.2945],[128.9815,35.2946],[128.9814,35.2947],[128.9812,35.2948],[128.9811,35.2948],[128.981,35.2948],[128.981,35.2949],[128.9809,35.2949],[128.9809,35.295],[128.9808,35.295],[128.9808,35.2951],[128.9807,35.2951],[128.9807,35.2952],[128.9806,35.2952],[128.9806,35.2953],[128.9805,35.2953],[128.9805,35.2954],[128.9804,35.2955],[128.9803,35.2955],[128.9803,35.2956],[128.9802,35.2956],[128.9801,35.2955],[128.9801,35.2956],[128.98,35.2956],[128.98,35.2957],[128.9799,35.2958],[128.9798,35.2959],[128.9797,35.296],[128.9797,35.2961],[128.9796,35.2961],[128.9781,35.298],[128.978,35.298],[128.978,35.2981],[128.9779,35.2981],[128.9778,35.2981],[128.9777,35.2981],[128.9776,35.2981],[128.9774,35.2981],[128.9774,35.2983],[128.9773,35.2986],[128.9773,35.2988],[128.9773,35.2989],[128.9772,35.299],[128.9772,35.2991],[128.9772,35.2992],[128.9772,35.2993],[128.9771,35.2995],[128.977,35.2998],[128.9769,35.3],[128.9809,35.3],[128.9812,35.2996],[128.9812,35.2995],[128.9813,35.2994],[128.9818,35.2987],[128.9818,35.2986],[128.9819,35.2985],[128.982,35.2984],[128.9821,35.2983],[128.9822,35.2981],[128.9825,35.2977],[128.9827,35.2975],[128.9828,35.2974],[128.9834,35.2968],[128.9842,35.2961],[128.9843,35.296],[128.9851,35.2954],[128.9867,35.2944],[128.9891,35.293],[128.9894,35.2929],[128.9895,35.2928],[128.9916,35.2917],[128.9953,35.2902],[128.9954,35.2902],[128.9955,35.2901],[128.9956,35.2901],[128.9957,35.2901],[128.9959,35.29],[128.9944,35.2886],[128.9944,35.2887],[128.9945,35.2888]]],"type":"Polygon"},"id":"rc161_dst-2","properties":{"geo_key":"2000010C161R0040001","priority":2,"rmp_code":"2000010200912","source_feature_id":"rc161_dst.fid-5171e1cf_1a04cd28d8d_-4a07","source_layer":"rc161_dst","zone_label":"일반보전지구","zone_type":"general_conservation"},"type":"Feature"},{"geometry":{"coordinates":[[[128.9598,35.134],[128.9601,35.1364],[128.9602,35.1369],[128.9602,35.1419],[128.9602,35.1427],[128.9601,35.1459],[128.9601,35.1481],[128.9602,35.15],[128.9604,35.151],[128.9607,35.1524],[128.9609,35.1531],[128.9613,35.1554],[128.9616,35.1575],[128.9635,35.1636],[128.9635,35.1637],[128.9636,35.1637],[128.9636,35.1638],[128.9636,35.1639],[128.9636,35.1641],[128.9636,35.1642],[128.9637,35.1642],[128.9637,35.1643],[128.9637,35.1644],[128.9637,35.1645],[128.9637,35.1646],[128.9637,35.1647],[128.9637,35.1648],[128.9637,35.1649],[128.9638,35.1649],[128.9638,35.165],[128.9638,35.1651],[128.9638,35.1652],[128.9638,35.1653],[128.9638,35.1654],[128.9638,35.1655],[128.9639,35.1656],[128.9638,35.1669],[128.9638,35.1673],[128.9639,35.1676],[128.9639,35.1681],[128.9638,35.1689],[128.9638,35.169],[128.9639,35.169],[128.9639,35.1694],[128.9639,35.1695],[128.9639,35.1696],[128.9639,35.1697],[128.9639,35.1703],[128.9639,35.1704],[128.9639,35.1705],[128.9638,35.1706],[128.9638,35.1711],[128.9638,35.1712],[128.9638,35.1713],[128.9638,35.1714],[128.9638,35.1715],[128.9638,35.1716],[128.9637,35.1716],[128.9637,35.1717],[128.9637,35.1718],[128.9636,35.1723],[128.9636,35.1724],[128.9635,35.1724],[128.9635,35.1725],[128.9635,35.1727],[128.9635,35.1728],[128.9635,35.1729],[128.9634,35.1731],[128.9634,35.1732],[128.9634,35.1733],[128.9633,35.1738],[128.9633,35.1739],[128.9633,35.174],[128.9632,35.1743],[128.963,35.175],[128.9629,35.1758],[128.9629,35.176],[128.9628,35.176],[128.9626,35.1775],[128.9624,35.1788],[128.9624,35.1798],[128.9624,35.1802],[128.9624,35.1806],[128.9627,35.1818],[128.9627,35.182],[128.9631,35.1829],[128.9637,35.1843],[128.9643,35.1854],[128.9649,35.1863],[128.9655,35.1871],[128.9663,35.1879],[128.9671,35.1885],[128.9678,35.1891],[128.969,35.1899],[128.9704,35.1907],[128.9712,35.1911],[128.9718,35.1915],[128.975,35.1933],[128.9756,35.1937],[128.9764,35.1941],[128.9773,35.1947],[128.9805,35.1965],[128.9833,35.1989],[128.9844,35.2],[128.9858,35.2012],[128.9892,35.204],[128.9897,35.2044],[128.9911,35.2057],[128.9917,35.2063],[128.9928,35.2074],[128.993,35.2078],[128.9959,35.2058],[128.9955,35.2054],[128.9951,35.205],[128.995,35.2049],[128.9945,35.2043],[128.9942,35.2039],[128.9941,35.2038],[128.994,35.2037],[128.9935,35.203],[128.9934,35.2029],[128.993,35.2025],[128.9927,35.2022],[128.9926,35.2021],[128.9924,35.2018],[128.9917,35.201],[128.9916,35.201],[128.9915,35.2009],[128.9915,35.2008],[128.9914,35.2007],[128.9911,35.2004],[128.991,35.2003],[128.9907,35.1999],[128.9905,35.1998],[128.9905,35.1997],[128.9903,35.1996],[128.9902,35.1995],[128.9901,35.1994],[128.99,35.1993],[128.9898,35.1991],[128.9897,35.199],[128.9897,35.1989],[128.9892,35.1985],[128.9892,35.1984],[128.9888,35.198],[128.9885,35.1978],[128.9885,35.1977],[128.9883,35.1976],[128.9882,35.1974],[128.9878,35.1971],[128.9869,35.1964],[128.986,35.1957],[128.9859,35.1955],[128.9858,35.1955],[128.9858,35.1954],[128.9855,35.1952],[128.9854,35.1952],[128.9851,35.1949],[128.985,35.1948],[128.9847,35.1946],[128.9842,35.1942],[128.9839,35.194],[128.9831,35.1933],[128.9827,35.193],[128.9827,35.1929],[128.9824,35.1927],[128.982,35.1924],[128.9818,35.1922],[128.9816,35.1919],[128.9815,35.1918],[128.9813,35.1916],[128.9811,35.1915],[128.981,35.1913],[128.9809,35.1912],[128.9808,35.1911],[128.9806,35.1908],[128.9804,35.1905],[128.9802,35.1904],[128.9801,35.1902],[128.9797,35.1898],[128.9794,35.1894],[128.979,35.1889],[128.9788,35.1886],[128.9786,35.1884],[128.9785,35.1882],[128.9783,35.188],[128.9782,35.1879],[128.9779,35.1875],[128.9778,35.1872],[128.9777,35.1871],[128.9773,35.1864],[128.9771,35.186],[128.9769,35.1857],[128.9767,35.1852],[128.9766,35.1848],[128.9765,35.1847],[128.9764,35.1842],[128.9763,35.1841],[128.9763,35.184],[128.9762,35.1838],[128.9762,35.1837],[128.9761,35.1833],[128.9761,35.1831],[128.976,35.1827],[128.976,35.1826],[128.9759,35.1823],[128.9759,35.1821],[128.9758,35.1816],[128.9758,35.1815],[128.9758,35.1814],[128.9758,35.1811],[128.9758,35.181],[128.9758,35.1806],[128.9758,35.1804],[128.9758,35.1801],[128.9759,35.1799],[128.9759,35.1797],[128.9759,35.1796],[128.9759,35.1794],[128.9759,35.1791],[128.976,35.1786],[128.976,35.1785],[128.976,35.1781],[128.976,35.178],[128.9761,35.1776],[128.9761,35.1771],[128.9762,35.177],[128.9762,35.1768],[128.9762,35.1767],[128.9762,35.1764],[128.9762,35.1763],[128.9762,35.1761],[128.9763,35.1759],[128.9763,35.1752],[128.9764,35.175],[128.9764,35.1747],[128.9765,35.1737],[128.9765,35.1734],[128.9766,35.1731],[128.9766,35.1728],[128.9766,35.1722],[128.9766,35.1719],[128.9767,35.1715],[128.9767,35.1713],[128.9767,35.171],[128.9767,35.1707],[128.9767,35.1704],[128.9767,35.1698],[128.9767,35.1696],[128.9766,35.1694],[128.9766,35.1693],[128.9766,35.1692],[128.9766,35.169],[128.9766,35.1683],[128.9766,35.1682],[128.9765,35.1677],[128.9764,35.1672],[128.9763,35.1664],[128.9763,35.1663],[128.9762,35.1659],[128.9761,35.165],[128.976,35.1645],[128.9758,35.1636],[128.9757,35.1635],[128.9757,35.1634],[128.9754,35.1625],[128.9752,35.1618],[128.9749,35.1607],[128.9749,35.1605],[128.9745,35.1592],[128.9743,35.1585],[128.9742,35.1585],[128.9742,35.1582],[128.9741,35.1579],[128.974,35.1578],[128.974,35.1576],[128.9738,35.157],[128.9737,35.1567],[128.9734,35.1556],[128.9732,35.1552],[128.9731,35.1548],[128.9725,35.153],[128.9725,35.1529],[128.9724,35.1526],[128.9724,35.1524],[128.9721,35.1517],[128.9721,35.1516],[128.9721,35.1515],[128.972,35.1515],[128.9717,35.1504],[128.9715,35.1501],[128.971,35.1488],[128.971,35.1487],[128.9708,35.1482],[128.9705,35.1475],[128.9693,35.145],[128.9686,35.1434],[128.9685,35.1432],[128.9685,35.1431],[128.9683,35.1427],[128.9682,35.1425],[128.9675,35.1407],[128.9673,35.1403],[128.9673,35.1402],[128.9672,35.1398],[128.967,35.1388],[128.967,35.1377],[128.9669,35.1376],[128.9668,35.1376],[128.9668,35.1375],[128.9668,35.1373],[128.9668,35.1372],[128.9667,35.1372],[128.9666,35.1372],[128.9666,35.1371],[128.9666,35.1369],[128.9663,35.136],[128.9661,35.1357],[128.9661,35.1354],[128.966,35.1351],[128.9657,35.1344],[128.9657,35.1343],[128.9654,35.1333],[128.9653,35.1332],[128.9652,35.1327],[128.9598,35.134]]],"type":"Polygon"},"id":"rc164_dst-1","properties":{"geo_key":"2000010C164L0020001","priority":3,"rmp_code":"2000010200912","source_feature_id":"rc164_dst.fid--4e45399f_1a04c5d1742_7bc","source_layer":"rc164_dst","zone_label":"근린친수지구","zone_type":"waterfront"},"type":"Feature"},{"geometry":{"coordinates":[[[128.9595,35.1323],[128.9588,35.1306],[128.9587,35.1302],[128.9564,35.125],[128.9561,35.1237],[128.9511,35.1236],[128.95,35.123],[128.9482,35.1215],[128.9479,35.1212],[128.9476,35.121],[128.9474,35.1208],[128.943,35.1167],[128.938,35.1118],[128.9365,35.1093],[128.9364,35.1093],[128.9317,35.1104],[128.9319,35.1108],[128.9319,35.111],[128.932,35.111],[128.9321,35.1112],[128.9321,35.1113],[128.9322,35.1114],[128.9323,35.1116],[128.9323,35.1117],[128.9325,35.1119],[128.9325,35.112],[128.9326,35.1121],[128.9328,35.1124],[128.9329,35.1126],[128.9333,35.1131],[128.9334,35.1132],[128.9336,35.1135],[128.934,35.1141],[128.9341,35.1143],[128.9344,35.1147],[128.9351,35.1159],[128.9354,35.1164],[128.9356,35.1167],[128.9361,35.1176],[128.9365,35.1182],[128.9373,35.1194],[128.9378,35.1202],[128.938,35.1205],[128.9388,35.1217],[128.9401,35.1238],[128.9401,35.1237],[128.9403,35.1242],[128.9405,35.1244],[128.9406,35.1247],[128.9407,35.1248],[128.9408,35.125],[128.941,35.1253],[128.9414,35.1259],[128.9415,35.1261],[128.9417,35.1264],[128.942,35.1269],[128.942,35.127],[128.9426,35.128],[128.9428,35.1284],[128.9432,35.129],[128.9435,35.1297],[128.9437,35.1299],[128.9437,35.13],[128.9438,35.1302],[128.9439,35.1303],[128.944,35.1305],[128.9441,35.1307],[128.9442,35.1309],[128.9444,35.1313],[128.945,35.1323],[128.9453,35.1328],[128.9453,35.1329],[128.9456,35.1335],[128.9457,35.1335],[128.9457,35.1336],[128.9457,35.1337],[128.946,35.1341],[128.9462,35.1345],[128.9468,35.1357],[128.9471,35.1364],[128.9472,35.1364],[128.9475,35.1371],[128.9478,35.1377],[128.9479,35.1378],[128.9483,35.1387],[128.9483,35.1388],[128.9485,35.139],[128.9485,35.1391],[128.949,35.14],[128.949,35.1401],[128.9493,35.1407],[128.9496,35.1413],[128.9496,35.1414],[128.95,35.1423],[128.9501,35.1425],[128.9503,35.143],[128.9503,35.1431],[128.9508,35.1441],[128.9509,35.1443],[128.9512,35.1449],[128.9513,35.1451],[128.9514,35.1453],[128.9514,35.1455],[128.9517,35.1461],[128.9518,35.1464],[128.952,35.1467],[128.9522,35.1472],[128.9523,35.1476],[128.9525,35.1479],[128.9527,35.1486],[128.9528,35.1487],[128.9528,35.1488],[128.9529,35.1489],[128.9529,35.149],[128.953,35.1492],[128.9531,35.1495],[128.9533,35.1499],[128.9533,35.15],[128.9534,35.1501],[128.9535,35.1503],[128.9536,35.1505],[128.9536,35.1507],[128.9537,35.1509],[128.9538,35.1511],[128.9539,35.1514],[128.9541,35.1518],[128.9542,35.1521],[128.9543,35.1524],[128.9545,35.1528],[128.9558,35.1558],[128.956,35.1562],[128.956,35.1564],[128.9561,35.1566],[128.9564,35.1572],[128.9566,35.1578],[128.9567,35.1581],[128.9569,35.1584],[128.957,35.1587],[128.9573,35.1593],[128.9573,35.1594],[128.9574,35.1597],[128.9575,35.1597],[128.9575,35.1598],[128.9576,35.1601],[128.9577,35.1603],[128.9578,35.1605],[128.9579,35.1609],[128.958,35.1611],[128.9582,35.1617],[128.9584,35.1621],[128.9585,35.1623],[128.9586,35.1625],[128.9587,35.1626],[128.9587,35.1627],[128.9589,35.1632],[128.959,35.1634],[128.959,35.1635],[128.959,35.1636],[128.9592,35.164],[128.9592,35.1641],[128.9593,35.1644],[128.9594,35.1648],[128.9596,35.1655],[128.9597,35.166],[128.9598,35.1663],[128.9599,35.1667],[128.96,35.1669],[128.96,35.1671],[128.9601,35.1675],[128.9601,35.1677],[128.9603,35.1685],[128.9603,35.169],[128.9603,35.1691],[128.9603,35.1694],[128.9604,35.17],[128.9604,35.1706],[128.9604,35.1709],[128.9604,35.1711],[128.9604,35.1713],[128.9604,35.1715],[128.9604,35.1719],[128.9603,35.1722],[128.9603,35.1724],[128.9603,35.1728],[128.9603,35.1731],[128.9602,35.1732],[128.9601,35.1735],[128.9601,35.1736],[128.9598,35.1745],[128.9597,35.1746],[128.9631,35.1746],[128.9632,35.1743],[128.9633,35.174],[128.9634,35.1735],[128.9634,35.1732],[128.9635,35.173],[128.9635,35.1728],[128.9635,35.1725],[128.9635,35.1724],[128.9636,35.1723],[128.9637,35.172],[128.9637,35.1718],[128.9637,35.1717],[128.9638,35.1716],[128.9638,35.1715],[128.9638,35.1713],[128.9638,35.1711],[128.9638,35.1706],[128.9639,35.1705],[128.9639,35.1704],[128.9639,35.1703],[128.9639,35.1697],[128.9639,35.1696],[128.9639,35.1695],[128.9639,35.1694],[128.9638,35.1689],[128.9639,35.1681],[128.9639,35.1676],[128.9638,35.1673],[128.9638,35.1669],[128.9639,35.1656],[128.9638,35.1655],[128.9638,35.1652],[128.9638,35.165],[128.9637,35.1649],[128.9637,35.1648],[128.9637,35.1647],[128.9637,35.1646],[128.9637,35.1643],[128.9637,35.1642],[128.9636,35.164],[128.9636,35.1639],[128.9636,35.1638],[128.9635,35.1637],[128.9616,35.1575],[128.9613,35.1554],[128.9609,35.1531],[128.9607,35.1524],[128.9604,35.151],[128.9602,35.15],[128.9601,35.1481],[128.9601,35.1459],[128.9602,35.1427],[128.9602,35.1419],[128.9602,35.1369],[128.9601,35.1364],[128.9598,35.134],[128.9595,35.1323]]],"type":"Polygon"},"id":"rc164_dst-2","properties":{"geo_key":"2000010C164R0010001","priority":3,"rmp_code":"2000010200912","source_feature_id":"rc164_dst.fid--4e45399f_1a04c5d1742_7c5","source_layer":"rc164_dst","zone_label":"근린친수지구","zone_type":"waterfront"},"type":"Feature"},{"geometry":{"coordinates":[[[129.0099,35.2512],[129.0099,35.2509],[129.0099,35.2506],[129.0099,35.2505],[129.0099,35.2504],[129.0099,35.2503],[129.0099,35.2502],[129.0099,35.2501],[129.0099,35.2499],[129.0099,35.2497],[129.0099,35.2495],[129.0098,35.2491],[129.0098,35.2488],[129.0098,35.2486],[129.0097,35.2485],[129.0097,35.2483],[129.0097,35.2481],[129.0097,35.2479],[129.0097,35.2477],[129.0097,35.2476],[129.0096,35.2474],[129.0096,35.2473],[129.0096,35.2471],[129.0096,35.247],[129.0096,35.2467],[129.0095,35.2466],[129.0095,35.2464],[129.0095,35.2462],[129.0095,35.246],[129.0095,35.2459],[129.0095,35.2457],[129.0094,35.2455],[129.0094,35.2453],[129.0094,35.2452],[129.0094,35.245],[129.0093,35.2448],[129.0093,35.2446],[129.0093,35.2443],[129.0093,35.2441],[129.0093,35.244],[129.0092,35.2438],[129.0092,35.2436],[129.0092,35.2434],[129.0092,35.2433],[129.0092,35.2431],[129.0091,35.243],[129.0091,35.2428],[129.0091,35.2426],[129.009,35.2425],[129.009,35.2424],[129.009,35.2423],[129.0094,35.2423],[129.0095,35.2421],[129.0095,35.242],[129.0096,35.2419],[129.0095,35.2417],[129.0095,35.2416],[129.0095,35.2415],[129.0095,35.2414],[129.0094,35.2411],[129.0093,35.2404],[129.0093,35.2401],[129.0092,35.2399],[129.009,35.2398],[129.0089,35.2397],[129.0087,35.2397],[129.0085,35.2397],[129.0084,35.2389],[129.0083,35.2385],[129.0082,35.2382],[129.0082,35.238],[129.0082,35.2379],[129.0082,35.2378],[129.0081,35.2377],[129.0081,35.2375],[129.008,35.2371],[129.008,35.237],[129.008,35.2369],[129.0079,35.2367],[129.0078,35.2364],[129.0077,35.2363],[129.0077,35.2362],[129.0077,35.2359],[129.0075,35.235],[129.0074,35.2345],[129.0074,35.2342],[129.0071,35.2329],[129.0071,35.2328],[129.0071,35.2327],[129.0071,35.2326],[129.007,35.2325],[129.007,35.2324],[129.007,35.2322],[129.007,35.2321],[129.007,35.2319],[129.0069,35.2316],[129.0069,35.2314],[129.0069,35.2312],[129.0069,35.2309],[129.0068,35.2304],[129.0067,35.23],[129.0066,35.2294],[129.0065,35.229],[129.0064,35.2285],[129.0064,35.2281],[129.0063,35.2275],[129.0062,35.227],[129.0061,35.2267],[129.006,35.2261],[129.0059,35.2256],[129.0059,35.2252],[129.0058,35.2248],[129.0057,35.2242],[129.0056,35.2238],[129.0055,35.2234],[129.0054,35.2229],[129.0054,35.2224],[129.0052,35.2217],[129.0052,35.2216],[129.0052,35.2212],[129.005,35.2206],[129.0049,35.22],[129.0049,35.2195],[129.0048,35.219],[129.0047,35.2187],[129.0045,35.2179],[129.0045,35.2178],[129.0044,35.2176],[129.0043,35.2171],[129.0043,35.2169],[129.0043,35.2168],[129.0042,35.2167],[129.0042,35.2166],[129.0042,35.2165],[129.0042,35.2164],[129.0042,35.2163],[129.0041,35.2161],[129.0041,35.2159],[129.004,35.2158],[129.004,35.2157],[129.004,35.2155],[129.0039,35.2153],[129.0039,35.2152],[129.0039,35.2151],[129.0038,35.215],[129.0038,35.2149],[129.0038,35.2148],[129.0038,35.2146],[129.0037,35.2145],[129.0037,35.2143],[129.0036,35.2139],[129.0035,35.2135],[129.0034,35.2134],[129.0034,35.2133],[129.0033,35.2133],[129.0033,35.2132],[129.0032,35.213],[129.0031,35.2129],[129.0031,35.2127],[129.0031,35.2126],[129.003,35.2122],[129.0029,35.2118],[129.0028,35.2116],[129.0028,35.2114],[129.0027,35.2111],[129.0026,35.211],[129.0025,35.2108],[129.0024,35.2106],[129.0022,35.2102],[129.0022,35.2101],[129.0021,35.2101],[129.0021,35.21],[129.0016,35.2101],[129.0013,35.2101],[129.0011,35.2101],[129.0008,35.21],[129.0006,35.2099],[129.0003,35.2097],[129.0002,35.2097],[129.0001,35.2096],[129.0,35.2096],[128.9998,35.2095],[128.9997,35.2094],[128.9996,35.2094],[128.9994,35.2092],[128.9991,35.209],[128.999,35.209],[128.9989,35.2088],[128.9988,35.2088],[128.9987,35.2087],[128.9984,35.2084],[128.9981,35.2081],[128.9979,35.2079],[128.9977,35.2077],[128.9972,35.2071],[128.9968,35.2067],[128.9963,35.2062],[128.9962,35.2061],[128.996,35.2059],[128.9959,35.2058],[128.993,35.2078],[128.9932,35.2083],[128.9938,35.2097],[128.9941,35.2105],[128.9954,35.2144],[128.9959,35.2158],[128.9962,35.2181],[128.9967,35.223],[128.9968,35.2235],[128.9971,35.225],[128.9976,35.2275],[128.9977,35.2279],[128.9983,35.2306],[128.9986,35.2319],[128.9986,35.2323],[128.9993,35.2353],[128.9994,35.2356],[129.0,35.2383],[129.0015,35.2417],[129.0021,35.243],[129.0022,35.2433],[129.0026,35.2442],[129.0032,35.2455],[129.0043,35.2485],[129.0044,35.2493],[129.0045,35.25],[129.0051,35.2518],[129.0055,35.253],[129.0057,35.2534],[129.0061,35.2542],[129.0063,35.2546],[129.0067,35.2553],[129.0073,35.257],[129.0074,35.2572],[129.0077,35.2586],[129.0083,35.2609],[129.0086,35.2622],[129.0089,35.2635],[129.0092,35.2646],[129.0093,35.2648],[129.0097,35.266],[129.0099,35.2665],[129.0106,35.2682],[129.0111,35.2697],[129.0115,35.2717],[129.0115,35.2728],[129.0176,35.2729],[129.0177,35.2726],[129.0178,35.2724],[129.0179,35.2722],[129.0179,35.272],[129.0179,35.2719],[129.018,35.2716],[129.018,35.2715],[129.018,35.2712],[129.018,35.271],[129.018,35.2709],[129.018,35.2707],[129.018,35.2705],[129.0179,35.2703],[129.0179,35.27],[129.0178,35.2698],[129.0177,35.2697],[129.0177,35.2695],[129.0176,35.2694],[129.0174,35.2689],[129.0172,35.2685],[129.017,35.2682],[129.0167,35.2677],[129.0164,35.2671],[129.0166,35.267],[129.0167,35.2669],[129.0165,35.2668],[129.0163,35.2669],[129.0161,35.2666],[129.0159,35.2663],[129.0159,35.2662],[129.0157,35.266],[129.0155,35.2656],[129.0154,35.2653],[129.0153,35.2651],[129.0152,35.265],[129.0151,35.2647],[129.015,35.2645],[129.0149,35.2643],[129.0148,35.2642],[129.0148,35.2641],[129.0147,35.2639],[129.0145,35.2636],[129.0144,35.2633],[129.0143,35.2631],[129.0142,35.2629],[129.0141,35.2627],[129.014,35.2625],[129.0139,35.2624],[129.0139,35.2623],[129.0138,35.262],[129.0136,35.2616],[129.0134,35.2614],[129.0133,35.2611],[129.0132,35.2609],[129.0132,35.2608],[129.013,35.2604],[129.0128,35.2601],[129.0128,35.26],[129.0127,35.2599],[129.0127,35.2598],[129.0126,35.2597],[129.0125,35.2595],[129.0124,35.2594],[129.0123,35.2591],[129.0122,35.2589],[129.012,35.2585],[129.0119,35.2583],[129.0118,35.258],[129.0117,35.2579],[129.0116,35.2577],[129.0115,35.2575],[129.0114,35.2573],[129.0113,35.2571],[129.0112,35.2568],[129.0111,35.2566],[129.011,35.2564],[129.0109,35.2563],[129.0109,35.2562],[129.0108,35.2561],[129.0108,35.256],[129.0107,35.2559],[129.0106,35.2556],[129.0105,35.2554],[129.0104,35.2551],[129.0103,35.255],[129.0103,35.2548],[129.0102,35.2547],[129.0101,35.2545],[129.01,35.254],[129.01,35.2538],[129.01,35.2535],[129.01,35.2534],[129.0099,35.2532],[129.0099,35.2529],[129.0099,35.2528],[129.0099,35.2526],[129.0099,35.2525],[129.0099,35.2524],[129.01,35.2522],[129.01,35.2521],[129.0099,35.2512]]],"type":"Polygon"},"id":"rc164_dst-3","properties":{"geo_key":"2000010C164L0030001","priority":3,"rmp_code":"2000010200912","source_feature_id":"rc164_dst.fid--4e45399f_1a04c5d1742_7c6","source_layer":"rc164_dst","zone_label":"근린친수지구","zone_type":"waterfront"},"type":"Feature"},{"geometry":{"coordinates":[[[129.0031,35.2946],[129.0034,35.2944],[129.0037,35.2941],[129.0041,35.2937],[129.0044,35.2934],[129.0048,35.293],[129.0051,35.2928],[129.0051,35.2927],[129.0052,35.2927],[129.0055,35.2924],[129.0058,35.2922],[129.0058,35.2921],[129.0061,35.2919],[129.0062,35.2918],[129.0064,35.2916],[129.0067,35.2913],[129.007,35.291],[129.0073,35.2908],[129.0076,35.2905],[129.0079,35.2903],[129.008,35.2901],[129.0084,35.2898],[129.0087,35.2896],[129.009,35.2894],[129.0093,35.2891],[129.0095,35.2889],[129.0098,35.2886],[129.0099,35.2886],[129.0101,35.2884],[129.0103,35.2882],[129.0106,35.288],[129.0107,35.2879],[129.0108,35.2878],[129.0109,35.2877],[129.011,35.2877],[129.0111,35.2876],[129.0112,35.2876],[129.0112,35.2875],[129.0111,35.2874],[129.011,35.2874],[129.0121,35.2865],[129.0121,35.2864],[129.0122,35.2864],[129.0125,35.2867],[129.0127,35.2865],[129.0129,35.2864],[129.0129,35.2862],[129.013,35.2861],[129.0131,35.286],[129.0132,35.286],[129.0133,35.2858],[129.0134,35.2856],[129.0135,35.2855],[129.0135,35.2854],[129.0136,35.2853],[129.0136,35.2852],[129.0137,35.2852],[129.0137,35.2851],[129.0138,35.285],[129.0138,35.2849],[129.0138,35.2848],[129.0139,35.2846],[129.0139,35.2845],[129.014,35.2844],[129.014,35.2843],[129.0142,35.2839],[129.0142,35.2837],[129.0143,35.2837],[129.0143,35.2836],[129.0143,35.2835],[129.0144,35.2834],[129.0144,35.2832],[129.0145,35.2828],[129.0146,35.2827],[129.0146,35.2824],[129.0148,35.282],[129.0149,35.2816],[129.015,35.2811],[129.0152,35.2806],[129.0153,35.2802],[129.0154,35.2798],[129.0156,35.2793],[129.0157,35.2789],[129.0159,35.2784],[129.0161,35.2777],[129.0163,35.277],[129.0166,35.2762],[129.0169,35.2754],[129.0169,35.2753],[129.017,35.275],[129.0171,35.2746],[129.0172,35.2743],[129.0173,35.2739],[129.0175,35.2734],[129.0176,35.2729],[129.0115,35.2728],[129.0115,35.275],[129.0115,35.2753],[129.0113,35.2764],[129.0104,35.2785],[129.0102,35.2788],[129.0097,35.2794],[129.0097,35.2795],[129.0096,35.2796],[129.0091,35.2802],[129.009,35.2803],[129.0086,35.2807],[129.0083,35.281],[129.008,35.2813],[129.0072,35.282],[129.0064,35.2827],[129.0041,35.2846],[129.0028,35.2857],[129.0016,35.2866],[129.0011,35.2868],[129.0009,35.2869],[129.0006,35.287],[129.0,35.2873],[128.9981,35.2885],[128.9972,35.2891],[128.996,35.2899],[128.9957,35.2901],[128.9956,35.2901],[128.9955,35.2901],[128.9954,35.2902],[128.9953,35.2902],[128.9916,35.2917],[128.9895,35.2928],[128.9894,35.2929],[128.9891,35.293],[128.9867,35.2944],[128.9851,35.2954],[128.9843,35.296],[128.9842,35.2961],[128.9834,35.2968],[128.9828,35.2974],[128.9827,35.2975],[128.9825,35.2977],[128.9822,35.2981],[128.9821,35.2983],[128.982,35.2984],[128.9819,35.2985],[128.9818,35.2986],[128.9818,35.2987],[128.9813,35.2994],[128.9812,35.2995],[128.9809,35.3],[128.9958,35.3],[128.996,35.2999],[128.9963,35.2997],[128.9969,35.2994],[128.9973,35.2991],[128.9974,35.2991],[128.9978,35.2988],[128.9986,35.2984],[128.999,35.2982],[128.9992,35.298],[128.9993,35.2979],[128.9995,35.2978],[128.9996,35.2977],[128.9998,35.2975],[129.0,35.2973],[129.0002,35.2972],[129.0006,35.2968],[129.0007,35.2967],[129.0011,35.2964],[129.0012,35.2963],[129.0013,35.2963],[129.0014,35.2962],[129.0015,35.2961],[129.0015,35.296],[129.0016,35.296],[129.0017,35.2959],[129.0019,35.2957],[129.002,35.2956],[129.0022,35.2954],[129.0023,35.2953],[129.0025,35.2951],[129.0028,35.2949],[129.0031,35.2946]]],"type":"Polygon"},"id":"rc164_dst-4","properties":{"geo_key":"2000010C164L0040001","priority":3,"rmp_code":"2000010200912","source_feature_id":"rc164_dst.fid--4e45399f_1a04c5d1742_7cb","source_layer":"rc164_dst","zone_label":"근린친수지구","zone_type":"waterfront"},"type":"Feature"},{"geometry":{"coordinates":[[[128.9773,35.1947],[128.9764,35.1941],[128.9756,35.1937],[128.975,35.1933],[128.9718,35.1915],[128.9712,35.1911],[128.9704,35.1907],[128.969,35.1899],[128.9678,35.1891],[128.9671,35.1885],[128.9663,35.1879],[128.9655,35.1871],[128.9649,35.1863],[128.9643,35.1854],[128.9637,35.1843],[128.9631,35.1829],[128.9627,35.182],[128.9627,35.1818],[128.9624,35.1806],[128.9624,35.1802],[128.9624,35.1798],[128.9624,35.1788],[128.9626,35.1775],[128.9628,35.176],[128.9629,35.176],[128.9629,35.1758],[128.963,35.175],[128.9631,35.1746],[128.9597,35.1746],[128.9596,35.1751],[128.9594,35.1756],[128.959,35.1765],[128.9589,35.1768],[128.9588,35.1771],[128.9587,35.1775],[128.9586,35.1777],[128.9585,35.1779],[128.9584,35.1782],[128.9584,35.1783],[128.9583,35.1787],[128.9582,35.1792],[128.9582,35.1796],[128.9582,35.1802],[128.9583,35.1808],[128.9583,35.181],[128.9583,35.1813],[128.9584,35.1816],[128.9585,35.1818],[128.9585,35.1819],[128.9586,35.1821],[128.9587,35.1824],[128.9588,35.1827],[128.959,35.1832],[128.9593,35.1837],[128.9594,35.184],[128.9595,35.1843],[128.9597,35.1849],[128.9598,35.1852],[128.9598,35.1853],[128.9599,35.1855],[128.96,35.1858],[128.9601,35.1861],[128.9601,35.1864],[128.9603,35.1868],[128.9603,35.1871],[128.9604,35.1873],[128.9604,35.1874],[128.9606,35.1879],[128.9608,35.1885],[128.9608,35.1887],[128.9609,35.1888],[128.9609,35.1889],[128.961,35.1891],[128.9612,35.1894],[128.9613,35.1898],[128.9614,35.1899],[128.9614,35.1901],[128.9614,35.1902],[128.9616,35.1905],[128.9617,35.1907],[128.9619,35.1911],[128.9621,35.1916],[128.9623,35.192],[128.9625,35.1924],[128.9627,35.1928],[128.9629,35.1931],[128.963,35.1933],[128.9631,35.1934],[128.9633,35.1936],[128.9634,35.1939],[128.9636,35.1942],[128.9639,35.1946],[128.9639,35.1947],[128.9641,35.1949],[128.9644,35.1953],[128.9646,35.1956],[128.9649,35.1959],[128.9652,35.1962],[128.9655,35.1964],[128.9655,35.1965],[128.9658,35.1968],[128.9658,35.1969],[128.966,35.1971],[128.9662,35.1972],[128.9665,35.1975],[128.9666,35.1976],[128.9668,35.1978],[128.9671,35.1981],[128.9672,35.1982],[128.9673,35.1983],[128.9675,35.1984],[128.9675,35.1985],[128.9676,35.1986],[128.9679,35.1988],[128.9681,35.199],[128.9683,35.1992],[128.9684,35.1992],[128.9687,35.1996],[128.9689,35.1997],[128.9691,35.1999],[128.9692,35.1999],[128.9694,35.2001],[128.9696,35.2003],[128.97,35.2006],[128.9703,35.2008],[128.9705,35.2009],[128.9705,35.201],[128.9708,35.2012],[128.971,35.2013],[128.9711,35.2014],[128.9714,35.2016],[128.972,35.202],[128.9719,35.202],[128.9731,35.2028],[128.9736,35.2032],[128.9738,35.2033],[128.9739,35.2033],[128.9743,35.2036],[128.9746,35.2038],[128.975,35.2041],[128.9753,35.2043],[128.9757,35.2046],[128.9763,35.2049],[128.9768,35.2053],[128.9774,35.2057],[128.9775,35.2057],[128.9779,35.206],[128.978,35.206],[128.9783,35.2062],[128.9789,35.2066],[128.9791,35.2067],[128.9792,35.2067],[128.9794,35.2069],[128.98,35.2072],[128.9802,35.2073],[128.9804,35.2074],[128.9809,35.2078],[128.9811,35.2079],[128.9817,35.2082],[128.9822,35.2085],[128.9826,35.2088],[128.9829,35.2089],[128.9834,35.2093],[128.9838,35.2095],[128.984,35.2096],[128.9841,35.2097],[128.9845,35.21],[128.9846,35.21],[128.9848,35.2102],[128.985,35.2104],[128.9851,35.2104],[128.9854,35.2106],[128.9855,35.2108],[128.9857,35.211],[128.986,35.2113],[128.9861,35.2113],[128.9861,35.2114],[128.9862,35.2114],[128.9863,35.2116],[128.9866,35.2119],[128.9868,35.2122],[128.9871,35.2126],[128.9872,35.2125],[128.9873,35.2126],[128.9875,35.2129],[128.9877,35.2133],[128.988,35.2136],[128.9883,35.2141],[128.9884,35.2143],[128.9885,35.2144],[128.9886,35.2146],[128.9887,35.2146],[128.9888,35.2149],[128.9891,35.2154],[128.9894,35.2159],[128.9895,35.216],[128.9897,35.2164],[128.99,35.2171],[128.9902,35.2174],[128.9903,35.2176],[128.9904,35.2178],[128.9906,35.2183],[128.9908,35.2188],[128.9911,35.2194],[128.9912,35.2197],[128.9913,35.2198],[128.9913,35.22],[128.9914,35.2201],[128.9914,35.2202],[128.9914,35.2203],[128.9916,35.2208],[128.9917,35.221],[128.9917,35.2212],[128.9918,35.2214],[128.9919,35.2217],[128.992,35.222],[128.992,35.2222],[128.9921,35.2225],[128.9922,35.2228],[128.9922,35.2231],[128.9922,35.2232],[128.9924,35.2242],[128.9925,35.2248],[128.9927,35.226],[128.9928,35.2266],[128.9929,35.2272],[128.993,35.2277],[128.9931,35.2282],[128.993,35.2282],[128.9929,35.2285],[128.9928,35.2286],[128.9928,35.2289],[128.9929,35.2293],[128.993,35.2298],[128.993,35.2301],[128.9931,35.2303],[128.9931,35.2306],[128.9932,35.2309],[128.9933,35.231],[128.9936,35.2313],[128.9936,35.2314],[128.9983,35.2309],[128.9983,35.2306],[128.9977,35.2279],[128.9976,35.2275],[128.9971,35.225],[128.9968,35.2235],[128.9967,35.223],[128.9962,35.2181],[128.9959,35.2158],[128.9954,35.2144],[128.9941,35.2105],[128.9938,35.2097],[128.9932,35.2083],[128.9928,35.2074],[128.9917,35.2063],[128.9911,35.2057],[128.9897,35.2044],[128.9892,35.204],[128.9858,35.2012],[128.9844,35.2],[128.9833,35.1989],[128.9805,35.1965],[128.9773,35.1947]]],"type":"Polygon"},"id":"rc164_dst-5","properties":{"geo_key":"2000010C164R0020001","priority":3,"rmp_code":"2000010200912","source_feature_id":"rc164_dst.fid--4e45399f_1a04c5d1742_7cc","source_layer":"rc164_dst","zone_label":"근린친수지구","zone_type":"waterfront"},"type":"Feature"},{"geometry":{"coordinates":[[[[129.0097,35.266],[129.0093,35.2648],[129.0092,35.2646],[129.0089,35.2635],[129.0086,35.2622],[129.0083,35.2609],[129.0077,35.2586],[129.0074,35.2572],[129.0073,35.257],[129.0067,35.2553],[129.0063,35.2546],[129.0061,35.2542],[129.0057,35.2534],[129.0055,35.253],[129.0051,35.2518],[129.0045,35.25],[129.0044,35.2493],[129.0043,35.2485],[129.0032,35.2455],[129.0026,35.2442],[129.0022,35.2433],[129.0021,35.243],[129.0015,35.2417],[129.0,35.2383],[128.9994,35.2356],[128.9993,35.2353],[128.9986,35.2323],[128.9986,35.2319],[128.9983,35.2309],[128.9936,35.2314],[128.9936,35.2315],[128.9937,35.2316],[128.9937,35.2317],[128.9937,35.2318],[128.9937,35.2322],[128.9938,35.2324],[128.9938,35.2327],[128.9939,35.2329],[128.9939,35.2331],[128.9939,35.2332],[128.994,35.2333],[128.994,35.2338],[128.9941,35.2339],[128.994,35.2339],[128.9938,35.2338],[128.9938,35.234],[128.9939,35.2345],[128.994,35.235],[128.9941,35.2354],[128.9941,35.2358],[128.9942,35.2362],[128.9942,35.2363],[128.9943,35.2363],[128.9944,35.2364],[128.9945,35.2364],[128.9945,35.2366],[128.9944,35.2367],[128.9943,35.2367],[128.9943,35.2368],[128.9943,35.237],[128.9944,35.2371],[128.9944,35.2372],[128.9944,35.2373],[128.9945,35.2374],[128.9946,35.2376],[128.9946,35.2377],[128.9946,35.2378],[128.9947,35.2378],[128.9947,35.2379],[128.9948,35.2381],[128.9948,35.2382],[128.9949,35.2383],[128.9949,35.2385],[128.9949,35.2386],[128.995,35.2388],[128.9951,35.2389],[128.9952,35.239],[128.9952,35.2392],[128.9952,35.2393],[128.9952,35.2394],[128.9954,35.2398],[128.9955,35.2399],[128.9955,35.24],[128.9955,35.2401],[128.9953,35.24],[128.9952,35.24],[128.9954,35.2402],[128.9955,35.2403],[128.9956,35.2404],[128.9957,35.2408],[128.9957,35.2409],[128.9958,35.2411],[128.9958,35.2412],[128.9958,35.2413],[128.9957,35.2413],[128.9959,35.2419],[128.9959,35.242],[128.9959,35.2422],[128.996,35.2423],[128.9961,35.2427],[128.9962,35.243],[128.9962,35.2431],[128.9962,35.2432],[128.9963,35.2435],[128.9964,35.2437],[128.9965,35.2442],[128.9967,35.2447],[128.9968,35.2453],[128.9969,35.2455],[128.997,35.2459],[128.9971,35.2465],[128.9972,35.2465],[128.9972,35.2467],[128.9975,35.2476],[128.9975,35.248],[128.9977,35.2484],[128.9978,35.2487],[128.9978,35.2488],[128.9979,35.2492],[128.998,35.2494],[128.9981,35.2499],[128.9982,35.2499],[128.9983,35.2503],[128.9985,35.2508],[128.9986,35.2511],[128.9988,35.2521],[128.999,35.2525],[128.999,35.2528],[128.9993,35.2537],[128.9995,35.2543],[128.9998,35.2556],[128.9999,35.2558],[129.0,35.2561],[129.0001,35.2565],[129.0001,35.2566],[129.0001,35.2567],[129.0004,35.2576],[129.0007,35.2584],[129.0007,35.2585],[129.0008,35.2587],[129.0011,35.2597],[129.0014,35.2606],[129.0014,35.2607],[129.0017,35.2615],[129.0018,35.2619],[129.0018,35.2621],[129.0019,35.2622],[129.0019,35.2624],[129.0019,35.2625],[129.002,35.2627],[129.0022,35.2632],[129.0024,35.2641],[129.0027,35.2649],[129.0029,35.2653],[129.0029,35.2655],[129.003,35.2658],[129.003,35.2659],[129.0032,35.2663],[129.0033,35.2666],[129.0032,35.2666],[129.0032,35.2667],[129.0033,35.2667],[129.0034,35.2669],[129.0036,35.2672],[129.0037,35.2674],[129.0037,35.2675],[129.0039,35.2683],[129.0041,35.2692],[129.0042,35.2693],[129.0044,35.2701],[129.0045,35.2709],[129.0046,35.271],[129.0046,35.2711],[129.0046,35.2714],[129.0046,35.2718],[129.0047,35.2722],[129.0048,35.2724],[129.0048,35.2726],[129.0049,35.2735],[129.0049,35.2738],[129.005,35.2739],[129.005,35.274],[129.005,35.2741],[129.0049,35.2744],[129.0049,35.2746],[129.0049,35.2748],[129.0049,35.2751],[129.0049,35.2752],[129.0049,35.2753],[129.0049,35.2754],[129.0049,35.2756],[129.0049,35.2757],[129.0049,35.2758],[129.0049,35.2759],[129.0048,35.2761],[129.0047,35.2765],[129.0046,35.2767],[129.0046,35.2768],[129.0044,35.2772],[129.0044,35.2774],[129.0043,35.2775],[129.0042,35.2777],[129.0042,35.2778],[129.0041,35.2779],[129.0041,35.278],[129.004,35.2783],[129.0038,35.2785],[129.0034,35.2791],[129.0031,35.2796],[129.003,35.2797],[129.0029,35.2797],[129.0027,35.2799],[129.0024,35.2803],[129.0021,35.2806],[129.0019,35.2808],[129.0017,35.281],[129.0017,35.2812],[129.0015,35.2813],[129.0015,35.2814],[129.0013,35.2815],[129.001,35.2818],[129.0008,35.282],[129.0007,35.282],[129.0008,35.2821],[129.0007,35.2821],[129.0006,35.2824],[129.0002,35.2827],[128.9996,35.2834],[128.9995,35.2833],[128.9995,35.2834],[128.9989,35.2841],[128.9988,35.284],[128.9988,35.2841],[128.9985,35.2845],[128.9983,35.2847],[128.9983,35.2848],[128.9979,35.2851],[128.9976,35.2854],[128.9975,35.2853],[128.9974,35.2854],[128.9975,35.2854],[128.9976,35.2855],[128.9969,35.2861],[128.997,35.2861],[128.9965,35.2866],[128.9964,35.2867],[128.9963,35.2868],[128.9963,35.2869],[128.9958,35.2873],[128.9956,35.2875],[128.9955,35.2876],[128.9953,35.2878],[128.9952,35.2879],[128.9952,35.288],[128.995,35.2882],[128.9949,35.2884],[128.9949,35.2885],[128.9948,35.2886],[128.9947,35.2887],[128.9946,35.2887],[128.9945,35.2886],[128.9959,35.29],[128.996,35.2899],[128.9972,35.2891],[128.9981,35.2885],[129.0,35.2873],[129.0006,35.287],[129.0009,35.2869],[129.0011,35.2868],[129.0016,35.2866],[129.0028,35.2857],[129.0041,35.2846],[129.0064,35.2827],[129.0072,35.282],[129.008,35.2813],[129.0083,35.281],[129.0086,35.2807],[129.009,35.2803],[129.0091,35.2802],[129.0096,35.2796],[129.0097,35.2795],[129.0097,35.2794],[129.0102,35.2788],[129.0104,35.2785],[129.0113,35.2764],[129.0115,35.2753],[129.0115,35.275],[129.0115,35.2728],[129.0115,35.2717],[129.0111,35.2697],[129.0106,35.2682],[129.0099,35.2665],[129.0097,35.266]]],[[[129.0021,35.2806],[129.002,35.2805],[129.002,35.2806],[129.0021,35.2806]]]],"type":"MultiPolygon"},"id":"rc165_dst-1","properties":{"geo_key":"2000010C165R0030001","priority":4,"rmp_code":"2000010200912","source_feature_id":"rc165_dst.fid-5171e1cf_1a04cd28d8d_-49d9","source_layer":"rc165_dst","zone_label":"복원지구","zone_type":"restoration"},"type":"Feature"}],"name":"lower_nakdong_river_review_reference","type":"FeatureCollection"}
