{
  "type": "FeatureCollection",
  "features": [
    {
      "type": "Feature",
      "geometry": {
        "type": "MultiPolygon",
        "coordinates": [
          [
            [
              [
                128.8921381990653,
                35.09257968307792
              ],
              [
                128.8970700685789,
                35.09104594822521
              ],
              [
                128.89638951458167,
                35.08918128371945
              ],
              [
                128.89536823881008,
                35.08638291731912
              ],
              [
                128.89537443739084,
                35.081848060862754
              ],
              [
                128.89537829415144,
                35.0790372431606
              ],
              [
                128.90335957481236,
                35.07904423023481
              ],
              [
                128.9111123514548,
                35.07905052213955
              ],
              [
                128.91221895189045,
                35.079727185994635
              ],
              [
                128.912216517576,
                35.08186261166538
              ],
              [
                128.91221136041023,
                35.08639774094907
              ],
              [
                128.91307460565054,
                35.08750020233417
              ],
              [
                128.91311819024452,
                35.08755575820031
              ],
              [
                128.91315443751634,
                35.08760220491742
              ],
              [
                128.91316375945144,
                35.08760140047419
              ],
              [
                128.91322590138006,
                35.087633984986404
              ],
              [
                128.91331126899868,
                35.087687227616826
              ],
              [
                128.91378613222568,
                35.08796059536938
              ],
              [
                128.91406668570679,
                35.08812601810938
              ],
              [
                128.91461037301048,
                35.08844459059095
              ],
              [
                128.9147783745236,
                35.08854710586928
              ],
              [
                128.91492445131036,
                35.08864293517078
              ],
              [
                128.9156336989078,
                35.08909989048009
              ],
              [
                128.91588478048982,
                35.089246629870665
              ],
              [
                128.91598725528434,
                35.08930321772475
              ],
              [
                128.91629974885737,
                35.089449999509256
              ],
              [
                128.91650701780728,
                35.08954848379666
              ],
              [
                128.91684977159025,
                35.08970348777183
              ],
              [
                128.91689175385946,
                35.08972136407973
              ],
              [
                128.91695555590022,
                35.08974223008102
              ],
              [
                128.9170577279471,
                35.08977466022778
              ],
              [
                128.91721099335098,
                35.08981631971091
              ],
              [
                128.91743968615413,
                35.089878131713306
              ],
              [
                128.9175635713052,
                35.08991102715383
              ],
              [
                128.91809090907378,
                35.09004857851753
              ],
              [
                128.918115764677,
                35.09008582198055
              ],
              [
                128.91827219843591,
                35.09014028168369
              ],
              [
                128.91854374128224,
                35.09023168575856
              ],
              [
                128.91855623840496,
                35.09023611098976
              ],
              [
                128.91871443172374,
                35.09028624477128
              ],
              [
                128.9188390746527,
                35.09033004594277
              ],
              [
                128.9202268270015,
                35.09080942784499
              ],
              [
                128.92060887481503,
                35.09094218376258
              ],
              [
                128.92108564324923,
                35.09110609836842
              ],
              [
                128.92140575580302,
                35.091215916044334
              ],
              [
                128.9216028656443,
                35.091284549712974
              ],
              [
                128.92203973242692,
                35.09143572503905
              ],
              [
                128.92245511371624,
                35.09157940346718
              ],
              [
                128.92291204501763,
                35.09173825031451
              ],
              [
                128.9229484088692,
                35.0917508659252
              ],
              [
                128.9232645131028,
                35.09186025245028
              ],
              [
                128.92411483716847,
                35.09214970311767
              ],
              [
                128.92445682414962,
                35.09227235309484
              ],
              [
                128.92451842792403,
                35.09230266001986
              ],
              [
                128.9245993242792,
                35.09235390883258
              ],
              [
                128.9246206482774,
                35.092383739493414
              ],
              [
                128.9250687085322,
                35.09242148322015
              ],
              [
                128.9253144510412,
                35.09243034491674
              ],
              [
                128.92614383817127,
                35.09246143701844
              ],
              [
                128.92612685118885,
                35.09284283901547
              ],
              [
                128.9258713199897,
                35.09272061722177
              ],
              [
                128.9254031172973,
                35.09267716720731
              ],
              [
                128.92522496071493,
                35.09263373577471
              ],
              [
                128.92503702994617,
                35.09262891239361
              ],
              [
                128.92484470439638,
                35.092621075386866
              ],
              [
                128.92500153016988,
                35.09275902908057
              ],
              [
                128.92515592401173,
                35.09289468255848
              ],
              [
                128.9253231369739,
                35.09304370211049
              ],
              [
                128.92552715759035,
                35.09323708260931
              ],
              [
                128.9258713227635,
                35.09368058874966
              ],
              [
                128.9260125921101,
                35.0939000688687
              ],
              [
                128.9261324923064,
                35.09410277016462
              ],
              [
                128.92626407742048,
                35.09436019141232
              ],
              [
                128.92629880042847,
                35.094453765565916
              ],
              [
                128.92644393858137,
                35.094834420549994
              ],
              [
                128.9264331787789,
                35.09484775409041
              ],
              [
                128.92639922981232,
                35.094854637539434
              ],
              [
                128.92641958801607,
                35.09489863672524
              ],
              [
                128.926532630347,
                35.0951438507144
              ],
              [
                128.9265780974896,
                35.09527796577348
              ],
              [
                128.9265901508462,
                35.0953132796606
              ],
              [
                128.9267002258055,
                35.09565069221357
              ],
              [
                128.9267267612036,
                35.09575219318548
              ],
              [
                128.9268309644804,
                35.09610761123798
              ],
              [
                128.92692268458958,
                35.096418602277005
              ],
              [
                128.92694512637254,
                35.09648765155805
              ],
              [
                128.92696136946307,
                35.09655921183348
              ],
              [
                128.92715094929818,
                35.09654551922288
              ],
              [
                128.92731849909308,
                35.09658905849835
              ],
              [
                128.9273279552543,
                35.09670754861292
              ],
              [
                128.92734889324444,
                35.096814859809896
              ],
              [
                128.92736119564893,
                35.096866452402246
              ],
              [
                128.92736350098113,
                35.096876125448944
              ],
              [
                128.92738169938858,
                35.0970902466243
              ],
              [
                128.9273835469643,
                35.0971088879646
              ],
              [
                128.92714232298994,
                35.09709635566109
              ],
              [
                128.92722268343243,
                35.09737087026855
              ],
              [
                128.92724459563513,
                35.09740764130868
              ],
              [
                128.92730556920912,
                35.09746106640035
              ],
              [
                128.92729256468868,
                35.0975065683254
              ],
              [
                128.92734922626843,
                35.09750152827884
              ],
              [
                128.92761169604086,
                35.09740352079325
              ],
              [
                128.92771573417627,
                35.097680933839996
              ],
              [
                128.92829685998362,
                35.09772920227798
              ],
              [
                128.92828017958936,
                35.097814145783765
              ],
              [
                128.92827541806398,
                35.09791427544948
              ],
              [
                128.92828553062813,
                35.098073155984636
              ],
              [
                128.92827053517277,
                35.09815024961968
              ],
              [
                128.9282555724298,
                35.09817842624425
              ],
              [
                128.9281934847798,
                35.09820442015042
              ],
              [
                128.9281800501566,
                35.09825299555692
              ],
              [
                128.92820453586248,
                35.09836839395829
              ],
              [
                128.9281797088574,
                35.098524215786504
              ],
              [
                128.92838195835134,
                35.09889399619119
              ],
              [
                128.92847074755795,
                35.09905793564561
              ],
              [
                128.92859683124962,
                35.099290734601354
              ],
              [
                128.92858047352928,
                35.099321163832364
              ],
              [
                128.92855424550027,
                35.09943731584717
              ],
              [
                128.92863386598373,
                35.099441726280396
              ],
              [
                128.9287070149365,
                35.09944690795269
              ],
              [
                128.92878095156263,
                35.09945434346256
              ],
              [
                128.92882598173813,
                35.099457263814756
              ],
              [
                128.92880850085643,
                35.09951752754705
              ],
              [
                128.9289506240425,
                35.0995608239766
              ],
              [
                128.92898053615528,
                35.09961878152318
              ],
              [
                128.92912869459386,
                35.099609198332864
              ],
              [
                128.92919384605494,
                35.09960456810328
              ],
              [
                128.92925466959906,
                35.09960752474592
              ],
              [
                128.92932391128505,
                35.09962856772373
              ],
              [
                128.92946084096113,
                35.099704003100484
              ],
              [
                128.92952606017053,
                35.09973469718148
              ],
              [
                128.929615401745,
                35.099810194286704
              ],
              [
                128.92965762920306,
                35.099832708319354
              ],
              [
                128.92985503063838,
                35.10045262979035
              ],
              [
                128.92984402799522,
                35.100517710768926
              ],
              [
                128.92980325003217,
                35.1005679557391
              ],
              [
                128.9296640025255,
                35.10064484985393
              ],
              [
                128.92962703635516,
                35.10077561583804
              ],
              [
                128.92959533457687,
                35.100781365786304
              ],
              [
                128.9296526435443,
                35.10084097986743
              ],
              [
                128.92975846826496,
                35.1008569064734
              ],
              [
                128.92977236400012,
                35.10089495223392
              ],
              [
                128.92986680746316,
                35.10113314829265
              ],
              [
                128.92986021074373,
                35.10127700203193
              ],
              [
                128.92978549578464,
                35.101430099577584
              ],
              [
                128.92970114906157,
                35.10143491706773
              ],
              [
                128.9297265173924,
                35.10164810455722
              ],
              [
                128.92986619165498,
                35.101712274032224
              ],
              [
                128.92997988057516,
                35.101766963717274
              ],
              [
                128.93022724620727,
                35.10197280040264
              ],
              [
                128.93038134631962,
                35.10209772965217
              ],
              [
                128.9304405966968,
                35.10219691434309
              ],
              [
                128.930488571958,
                35.10252422749328
              ],
              [
                128.93051432369683,
                35.1029306673133
              ],
              [
                128.93049411863345,
                35.10333807171914
              ],
              [
                128.9304155437914,
                35.10353992208115
              ],
              [
                128.93043583382382,
                35.10376870897209
              ],
              [
                128.93061865380886,
                35.10417082388351
              ],
              [
                128.9307543518735,
                35.10452694151258
              ],
              [
                128.93075614990164,
                35.10485819350032
              ],
              [
                128.9301807572914,
                35.104980676434394
              ],
              [
                128.93026007610115,
                35.104808481556255
              ],
              [
                128.92975712061138,
                35.10507793617377
              ],
              [
                128.92966922196436,
                35.105088916859565
              ],
              [
                128.92967547999325,
                35.105106992892495
              ],
              [
                128.92944998782536,
                35.10516336566747
              ],
              [
                128.92950774776338,
                35.10534975674968
              ],
              [
                128.92954215853948,
                35.10545866180805
              ],
              [
                128.92957303644292,
                35.10555637884641
              ],
              [
                128.9296868819505,
                35.10592639266187
              ],
              [
                128.9297105510312,
                35.10600239155936
              ],
              [
                128.92975598474496,
                35.106149899424636
              ],
              [
                128.92974455070546,
                35.10619309498655
              ],
              [
                128.92977334207146,
                35.106206569355464
              ],
              [
                128.9298598225288,
                35.10650179874595
              ],
              [
                128.93041646210506,
                35.1067427268641
              ],
              [
                128.9304349105589,
                35.1067560778387
              ],
              [
                128.9304470339425,
                35.106777735672004
              ],
              [
                128.9304343835784,
                35.106870478494216
              ],
              [
                128.93041769571082,
                35.10696442677477
              ],
              [
                128.9304097340496,
                35.10697532860021
              ],
              [
                128.93039279479487,
                35.10697970831201
              ],
              [
                128.93038971259796,
                35.10704294611649
              ],
              [
                128.93035804586768,
                35.107081397717536
              ],
              [
                128.93035862696703,
                35.10708166846701
              ],
              [
                128.93050766006868,
                35.10715405405212
              ],
              [
                128.9305603535915,
                35.10709017824989
              ],
              [
                128.93054421575707,
                35.107081047023826
              ],
              [
                128.93058186959314,
                35.10700647225419
              ],
              [
                128.9305842782826,
                35.10687212554203
              ],
              [
                128.9305947466671,
                35.10680366414261
              ],
              [
                128.93065560370582,
                35.10668530568372
              ],
              [
                128.9310870360544,
                35.10625523715633
              ],
              [
                128.93109736785647,
                35.106268574307684
              ],
              [
                128.93129573766032,
                35.1061985631996
              ],
              [
                128.93109185753667,
                35.10566060182625
              ],
              [
                128.93110943868186,
                35.10562365614412
              ],
              [
                128.93119841166452,
                35.10560099337375
              ],
              [
                128.9314165425312,
                35.106020974401346
              ],
              [
                128.93154334838175,
                35.10626531691126
              ],
              [
                128.93141420222193,
                35.10632067620862
              ],
              [
                128.9314032575539,
                35.10642108170899
              ],
              [
                128.93141901316068,
                35.1064666997688
              ],
              [
                128.9315039697797,
                35.106652699953045
              ],
              [
                128.93161003456893,
                35.106885087346086
              ],
              [
                128.93179902144695,
                35.10729914688496
              ],
              [
                128.93211734444125,
                35.108241091027715
              ],
              [
                128.93213642611735,
                35.10829754526075
              ],
              [
                128.9322602321301,
                35.10867177155692
              ],
              [
                128.93237999094688,
                35.109033971223646
              ],
              [
                128.93259660194215,
                35.10997502661292
              ],
              [
                128.9325652805143,
                35.11004621644697
              ],
              [
                128.93254699657066,
                35.110057671387445
              ],
              [
                128.93250173666,
                35.11008602054641
              ],
              [
                128.93193843709116,
                35.11023966063665
              ],
              [
                128.93200382164136,
                35.11037091841975
              ],
              [
                128.932140549369,
                35.1106313010495
              ],
              [
                128.9321894429643,
                35.11061295922446
              ],
              [
                128.9324138512413,
                35.110608769669824
              ],
              [
                128.93267731873834,
                35.11052804015074
              ],
              [
                128.93274440848975,
                35.11051123172238
              ],
              [
                128.9328249832248,
                35.11048956353308
              ],
              [
                128.93335555813817,
                35.110354117489194
              ],
              [
                128.93374196868135,
                35.11025500374376
              ],
              [
                128.93414154358587,
                35.11015283144073
              ],
              [
                128.93453760610015,
                35.11005227833252
              ],
              [
                128.9348212134337,
                35.10997924387706
              ],
              [
                128.9348238464967,
                35.10997861437019
              ],
              [
                128.93528332180864,
                35.10986078749022
              ],
              [
                128.93689048204965,
                35.10945568017456
              ],
              [
                128.93802949528876,
                35.10916784524825
              ],
              [
                128.93841819624777,
                35.10907106131318
              ],
              [
                128.9390879636576,
                35.10891384943883
              ],
              [
                128.93932931983915,
                35.10885826911681
              ],
              [
                128.93921958615329,
                35.10848522902563
              ],
              [
                128.93916007881666,
                35.10827130512713
              ],
              [
                128.93909575867124,
                35.108040162690735
              ],
              [
                128.93899168247248,
                35.107874348535866
              ],
              [
                128.93874562170052,
                35.10748807776773
              ],
              [
                128.9386610012889,
                35.10741322087492
              ],
              [
                128.9384449536074,
                35.10722634645342
              ],
              [
                128.93786703810116,
                35.10691849982832
              ],
              [
                128.9369241480141,
                35.10668247567253
              ],
              [
                128.93653708647435,
                35.1066603659812
              ],
              [
                128.93777616396102,
                35.10586007183781
              ],
              [
                128.93788041852488,
                35.105789639949045
              ],
              [
                128.9379845163021,
                35.10535514736314
              ],
              [
                128.93798457444927,
                35.10499703584355
              ],
              [
                128.93769547872853,
                35.10467861288281
              ],
              [
                128.9373809410303,
                35.1042173998467
              ],
              [
                128.93639577270244,
                35.104500534357506
              ],
              [
                128.93618191594214,
                35.10378266391482
              ],
              [
                128.93589493019024,
                35.102623626248615
              ],
              [
                128.93675889057266,
                35.10246842472545
              ],
              [
                128.93663007295888,
                35.10128910199374
              ],
              [
                128.93608267169859,
                35.099775418424905
              ],
              [
                128.9355156265674,
                35.098847067153386
              ],
              [
                128.93544962515404,
                35.09813819855511
              ],
              [
                128.93511567520787,
                35.097452799321445
              ],
              [
                128.93481896121534,
                35.096838807609636
              ],
              [
                128.93473271734723,
                35.09648596619797
              ],
              [
                128.93465348258206,
                35.096146108212665
              ],
              [
                128.93453994633163,
                35.09564164208567
              ],
              [
                128.93435469908482,
                35.09472124653991
              ],
              [
                128.93421492233054,
                35.09411063879223
              ],
              [
                128.93459818988003,
                35.094139279696506
              ],
              [
                128.93508824833057,
                35.094173467178784
              ],
              [
                128.93557720557882,
                35.0942001437146
              ],
              [
                128.9359568351047,
                35.09421247266137
              ],
              [
                128.9363896842691,
                35.09421427399896
              ],
              [
                128.93663738645247,
                35.09420807002533
              ],
              [
                128.93714365133494,
                35.0941772965059
              ],
              [
                128.93773148242957,
                35.09411035593019
              ],
              [
                128.9382610272924,
                35.094024768969085
              ],
              [
                128.9389659139987,
                35.093860022161735
              ],
              [
                128.9395105547296,
                35.093690700725034
              ],
              [
                128.93998574346762,
                35.09351773620093
              ],
              [
                128.94059504163909,
                35.09325718845061
              ],
              [
                128.94086649126498,
                35.09312192130958
              ],
              [
                128.94115172105117,
                35.09296237763794
              ],
              [
                128.94154668056692,
                35.09272998513653
              ],
              [
                128.94196027595325,
                35.092444257699555
              ],
              [
                128.9423243957547,
                35.09217716298565
              ],
              [
                128.94455890293838,
                35.09026426376191
              ],
              [
                128.9448304837218,
                35.0911215802114
              ],
              [
                128.94498817296486,
                35.09161082460443
              ],
              [
                128.94523910233565,
                35.09238710663397
              ],
              [
                128.94537370785204,
                35.09280170670581
              ],
              [
                128.94549868230067,
                35.09318953161995
              ],
              [
                128.94555657316184,
                35.09336992142824
              ],
              [
                128.9459515267793,
                35.0946040711988
              ],
              [
                128.94632328721883,
                35.095771147375366
              ],
              [
                128.9466948471396,
                35.09692587340879
              ],
              [
                128.94680266096256,
                35.097245545828976
              ],
              [
                128.9472423454156,
                35.09856074340024
              ],
              [
                128.94734850661195,
                35.09889826152034
              ],
              [
                128.9473600819044,
                35.098974341810326
              ],
              [
                128.9473480858544,
                35.09903716153432
              ],
              [
                128.94730091304825,
                35.09922210038231
              ],
              [
                128.94719430073062,
                35.099565382281845
              ],
              [
                128.9471105948147,
                35.09993129856723
              ],
              [
                128.94701802274778,
                35.1005996183605
              ],
              [
                128.94700396417466,
                35.101289606010006
              ],
              [
                128.94704025288914,
                35.101641965360066
              ],
              [
                128.94709398660015,
                35.10198567940817
              ],
              [
                128.94716186312257,
                35.10233886406207
              ],
              [
                128.947335454479,
                35.10288399616102
              ],
              [
                128.9479126303058,
                35.1046700333834
              ],
              [
                128.9484881136683,
                35.1063982892359
              ],
              [
                128.94856239039603,
                35.106706858182605
              ],
              [
                128.94866115284051,
                35.107146405751585
              ],
              [
                128.94916564369026,
                35.10707478568813
              ],
              [
                128.94933172333214,
                35.10705052038069
              ],
              [
                128.9497722607836,
                35.10698764055008
              ],
              [
                128.94978477370324,
                35.106973755879764
              ],
              [
                128.94980320255775,
                35.10695370840569
              ],
              [
                128.94985521004662,
                35.1067707809176
              ],
              [
                128.94987667958617,
                35.10681648914901
              ],
              [
                128.95000624960036,
                35.10694084212482
              ],
              [
                128.9501474890964,
                35.10699750754573
              ],
              [
                128.95042377769045,
                35.10701276700852
              ],
              [
                128.95046646911672,
                35.107150873754186
              ],
              [
                128.95050666280395,
                35.10724895892273
              ],
              [
                128.95053258888007,
                35.10736073880162
              ],
              [
                128.95127633588612,
                35.10723810290462
              ],
              [
                128.95605551224637,
                35.10655486005622
              ],
              [
                128.95603585151255,
                35.1064059475315
              ],
              [
                128.95601520458843,
                35.10625541217711
              ],
              [
                128.9561486985443,
                35.10624140085294
              ],
              [
                128.95628901874363,
                35.10618052104684
              ],
              [
                128.95640667455712,
                35.10604599130169
              ],
              [
                128.9564941944978,
                35.10586106407639
              ],
              [
                128.9563783331658,
                35.1049279299481
              ],
              [
                128.95637495457606,
                35.10488871939261
              ],
              [
                128.95635620764273,
                35.10467346688331
              ],
              [
                128.9563200217603,
                35.10425837563249
              ],
              [
                128.95631380922916,
                35.10418698534583
              ],
              [
                128.95626075766972,
                35.10372690973283
              ],
              [
                128.95622342585938,
                35.10340240498758
              ],
              [
                128.95621753107025,
                35.1033517461637
              ],
              [
                128.9559501915501,
                35.10106786116577
              ],
              [
                128.95586395604874,
                35.10033132438759
              ],
              [
                128.95571953287896,
                35.09911478917963
              ],
              [
                128.95557991730294,
                35.09793809567393
              ],
              [
                128.95530711184878,
                35.09549087788317
              ],
              [
                128.9552415404668,
                35.09508172350508
              ],
              [
                128.95518558891112,
                35.094728727756845
              ],
              [
                128.9551212022644,
                35.094359954856934
              ],
              [
                128.95505307844303,
                35.094007134628775
              ],
              [
                128.9549801251233,
                35.093662605048756
              ],
              [
                128.95489862348774,
                35.0933090584755
              ],
              [
                128.95480977877725,
                35.092948658629695
              ],
              [
                128.95471731025515,
                35.09259808218047
              ],
              [
                128.95461979665708,
                35.09224966696925
              ],
              [
                128.95451143016248,
                35.09189574913306
              ],
              [
                128.95440108607988,
                35.091549762426375
              ],
              [
                128.95428591406005,
                35.091210083279485
              ],
              [
                128.954152229441,
                35.090836325178536
              ],
              [
                128.95402171010855,
                35.09049051047155
              ],
              [
                128.95389260661568,
                35.0901634445604
              ],
              [
                128.95378977757622,
                35.08991480761544
              ],
              [
                128.95353778189926,
                35.08933612183284
              ],
              [
                128.95333023478898,
                35.08888932290192
              ],
              [
                128.95300328364837,
                35.0882328182962
              ],
              [
                128.95276799604264,
                35.087789792977496
              ],
              [
                128.95244462332604,
                35.08721558288801
              ],
              [
                128.95207565979973,
                35.08660394664905
              ],
              [
                128.95183058818233,
                35.08621734092479
              ],
              [
                128.9517553201812,
                35.08610698291469
              ],
              [
                128.95156690665493,
                35.085782233536435
              ],
              [
                128.95136711636903,
                35.08541484453514
              ],
              [
                128.9510615597211,
                35.08493025172054
              ],
              [
                128.95082401493067,
                35.08448125441393
              ],
              [
                128.9506660827419,
                35.08397826206742
              ],
              [
                128.9500798322172,
                35.082128375196234
              ],
              [
                128.9500151210544,
                35.080406737329426
              ],
              [
                128.95033383668957,
                35.07923509501306
              ],
              [
                128.95514879675295,
                35.060514523711355
              ],
              [
                128.95583913002176,
                35.057829784000745
              ],
              [
                128.95689358004543,
                35.053963296035114
              ],
              [
                128.95794727595586,
                35.051331674846345
              ],
              [
                128.958221821292,
                35.050349278203164
              ],
              [
                128.95900051727844,
                35.04944818158991
              ],
              [
                128.9602941476879,
                35.04895287277773
              ],
              [
                128.96153304650215,
                35.04827725779731
              ],
              [
                128.96244327774684,
                35.04724097616394
              ],
              [
                128.96352877793288,
                35.04636698936395
              ],
              [
                128.9648224450684,
                35.04561924781107
              ],
              [
                128.96507464100338,
                35.04537595316951
              ],
              [
                128.96602841828212,
                35.044844425638566
              ],
              [
                128.96732199369106,
                35.04420482188779
              ],
              [
                128.96816609438298,
                35.043790424971775
              ],
              [
                128.96834171418087,
                35.043150498547554
              ],
              [
                128.96777972029673,
                35.042581253392015
              ],
              [
                128.9673759691111,
                35.0419681712811
              ],
              [
                128.96742809922387,
                35.041532913016255
              ],
              [
                128.96648015659204,
                35.0410859232888
              ],
              [
                128.96628965408556,
                35.040369637378916
              ],
              [
                128.96725214082915,
                35.040082374367245
              ],
              [
                128.9670743153445,
                35.0397033869343
              ],
              [
                128.96664463707938,
                35.03907717076603
              ],
              [
                128.96615768774672,
                35.03835782452365
              ],
              [
                128.96592027773497,
                35.03766667238219
              ],
              [
                128.9653674969398,
                35.037229253123215
              ],
              [
                128.9618125954608,
                35.036820903932934
              ],
              [
                128.9418340719413,
                35.03674062608295
              ],
              [
                128.93932432141574,
                35.03687457345156
              ],
              [
                128.9330661120061,
                35.037493156417604
              ],
              [
                128.92426466526942,
                35.038722759422825
              ],
              [
                128.91541844711918,
                35.040591666457104
              ],
              [
                128.9068360187173,
                35.041459610383384
              ],
              [
                128.89607057415853,
                35.04374022515289
              ],
              [
                128.8844365043256,
                35.04753335277289
              ],
              [
                128.88567111408025,
                35.06568057320181
              ],
              [
                128.8857592360524,
                35.06634810260456
              ],
              [
                128.885766039295,
                35.06743182426683
              ],
              [
                128.88540969500102,
                35.06848933866959
              ],
              [
                128.8841833882281,
                35.07937883054563
              ],
              [
                128.884259189801,
                35.079508159754255
              ],
              [
                128.88427863961078,
                35.079708912849
              ],
              [
                128.88422258551935,
                35.07980196983937
              ],
              [
                128.88372890999165,
                35.08020809809469
              ],
              [
                128.8837221565092,
                35.08025324999358
              ],
              [
                128.88367292101566,
                35.080407786520766
              ],
              [
                128.88359252476698,
                35.08049991820332
              ],
              [
                128.8834159144844,
                35.08062719966431
              ],
              [
                128.8834172856501,
                35.08074104355775
              ],
              [
                128.88350173706684,
                35.081717305284435
              ],
              [
                128.88347457971744,
                35.08184446163011
              ],
              [
                128.88321719613523,
                35.082321754751234
              ],
              [
                128.88326852925906,
                35.08238688340411
              ],
              [
                128.88356163781683,
                35.08299180492753
              ],
              [
                128.88419198403858,
                35.084330583650356
              ],
              [
                128.8849574401239,
                35.08513506901319
              ],
              [
                128.88504751992633,
                35.08525287384518
              ],
              [
                128.88519013043143,
                35.08552179784177
              ],
              [
                128.88549466539476,
                35.08612906890671
              ],
              [
                128.8855612561068,
                35.086263976824554
              ],
              [
                128.88573820886606,
                35.086599363574436
              ],
              [
                128.88591081434595,
                35.08690806549307
              ],
              [
                128.88597728642634,
                35.087050274112585
              ],
              [
                128.8859870279453,
                35.08714096073927
              ],
              [
                128.8858118729627,
                35.08747276670774
              ],
              [
                128.8857987699527,
                35.08751070169212
              ],
              [
                128.88653512870195,
                35.087983176172536
              ],
              [
                128.88703779591998,
                35.088307872453456
              ],
              [
                128.88718534193583,
                35.08842744243203
              ],
              [
                128.88733208611097,
                35.08857188915226
              ],
              [
                128.88744681733132,
                35.08871089741446
              ],
              [
                128.88745567855017,
                35.088726228950215
              ],
              [
                128.8875149979826,
                35.088810291916886
              ],
              [
                128.88752998119844,
                35.088839329947206
              ],
              [
                128.8875853172875,
                35.08894907804118
              ],
              [
                128.88770008677506,
                35.08929819428227
              ],
              [
                128.88770543755228,
                35.0893145140074
              ],
              [
                128.88774235784112,
                35.089498336951955
              ],
              [
                128.88778574700135,
                35.08984125685682
              ],
              [
                128.8878402922794,
                35.09004754025883
              ],
              [
                128.8878344786322,
                35.09020680599058
              ],
              [
                128.88817306789758,
                35.09381258118867
              ],
              [
                128.8921381990653,
                35.09257968307792
              ]
            ]
          ]
        ]
      },
      "properties": {
        "category": "wetland",
        "label": "낙동강하구 습지보호지역",
        "dataset": "LT_C_WGISARWET",
        "corroborating_datasets": [
          "LT_C_UM901",
          "LT_C_WGISARWET"
        ],
        "delivery": "full_extent_snapshot",
        "notice_number": "환경부 고시 제2009-34호",
        "notice_date": "2009-03-13",
        "legal_effect": false
      }
    }
  ]
}
